<?xml version="1.0" encoding="UTF-8"?>
<kml xmlns="http://www.opengis.net/kml/2.2">
<Document><name>绍兴 行程路线图</name>
<Folder><name>Day1 跟着课本游绍兴：鲁迅故里→仓桥直街→东湖乌篷船 (2026-10-06)</name>
<Placemark><name>绍兴北站（到达）</name><description>09:48 D3201 到达；出站按指示换乘地铁1号线（支线往黄酒小镇方向），约30-35分钟、5元/人到鲁迅故里站；赶时间3人打车约25-30分钟、40-55元</description><Point><coordinates>120.539485,30.098661,0</coordinates></Point></Placemark>
<Placemark><name>鲁迅故里</name><description>游览顺序：鲁迅祖居→三味书屋（找书桌『早』字）→鲁迅故居→百草园→鲁迅纪念馆；10:30场可顺带看笔下风情园免费沉浸式活动《那一年的语文课》；故里内乌篷船河道窄不推荐，船留给东湖；出口街区黄酒棒冰/黄酒奶茶文创多，穷游控手</description><Point><coordinates>120.584419,29.993263,0</coordinates></Point></Placemark>
<Placemark><name>仓桥直街</name><description>从鲁迅故里步行约650米；全长1.5公里、清末民初43个台门，府山横街往北一段最热闹；扫街当午餐：臭豆腐约10元/份、奶油小攀约5元、黄酒棒冰约5元、梅干菜扣肉饭约15元；认准现炸酥脆配甜面酱+辣椒酱的摊位</description><Point><coordinates>120.577947,29.997525,0</coordinates></Point></Placemark>
<Placemark><name>东湖景区（乌篷船）</name><description>乘乌篷船穿崖壁、钻陶公洞是全天精华（86版《西游记》女儿国取景地），约20-30分钟；3人拼一条船；从仓桥直街/鲁迅故里乘公交1路/57路约2元或打车3人分摊约5元/人；景区不大，2小时含船足够</description><Point><coordinates>120.632047,29.998452,0</coordinates></Point></Placemark>
<Placemark><name>寻宝记状元楼（鲁迅故里店）</name><description></description><Point><coordinates>120.578458,30.000241,0</coordinates></Point></Placemark>
<Placemark><name>绍兴北站（返程）</name><description>18:30前从鲁迅故里地铁站进站（硬卡点），地铁约30-35分钟，19:05前到站；安检高峰多留10分钟</description><Point><coordinates>120.539485,30.098661,0</coordinates></Point></Placemark>
<Placemark><name>Day1 跟着课本游绍兴：鲁迅故里→仓桥直街→东湖乌篷船 (2026-10-06) 路线</name><LineString><tessellate>1</tessellate><coordinates>120.53944,30.098694,0 120.539449,30.098698,0 120.53954,30.098806,0 120.539557,30.098837,0 120.539557,30.098837,0 120.539692,30.099071,0 120.539692,30.099071,0 120.539683,30.099097,0 120.539687,30.099167,0 120.539744,30.099201,0 120.539826,30.099214,0 120.539926,30.099206,0 120.539926,30.099206,0 120.541055,30.098976,0 120.541055,30.098976,0 120.541198,30.098945,0 120.541198,30.098941,0 120.541267,30.098924,0 120.54128,30.098898,0 120.541237,30.098681,0 120.541237,30.098598,0 120.541237,30.098598,0 120.541189,30.096415,0 120.541189,30.096415,0 120.541202,30.095833,0 120.541194,30.09576,0 120.541194,30.09576,0 120.541202,30.095634,0 120.541202,30.095634,0 120.541293,30.095321,0 120.541615,30.094423,0 120.541615,30.094423,0 120.541988,30.093407,0 120.542114,30.093077,0 120.542114,30.093077,0 120.542144,30.092973,0 120.542144,30.092973,0 120.542161,30.092917,0 120.542161,30.092917,0 120.542613,30.09174,0 120.5427,30.091554,0 120.542721,30.091502,0 120.542812,30.091354,0 120.542812,30.091354,0 120.543034,30.090985,0 120.543095,30.090907,0 120.543095,30.090907,0 120.54322,30.090738,0 120.543455,30.090464,0 120.543767,30.090161,0 120.543767,30.090161,0 120.544119,30.089874,0 120.544418,30.08967,0 120.544735,30.089484,0 120.545634,30.089019,0 120.545634,30.089019,0 120.546693,30.08852,0 120.546693,30.088516,0 120.546641,30.088472,0 120.546623,30.088411,0 120.546623,30.088411,0 120.546432,30.087778,0 120.546432,30.087717,0 120.546432,30.087717,0 120.546137,30.086827,0 120.546137,30.086827,0 120.54612,30.08678,0 120.54612,30.08678,0 120.545872,30.08602,0 120.545434,30.084553,0 120.545434,30.084553,0 120.545395,30.084449,0 120.545391,30.08444,0 120.545161,30.084253,0 120.545161,30.084253,0 120.545213,30.084188,0 120.545273,30.084084,0 120.545273,30.08408,0 120.544918,30.082791,0 120.544818,30.082205,0 120.544727,30.081541,0 120.544683,30.08102,0 120.544687,30.08082,0 120.544687,30.08082,0 120.544674,30.080569,0 120.544583,30.078568,0 120.544583,30.078568,0 120.54457,30.078464,0 120.54457,30.078464,0 120.544566,30.078394,0 120.544566,30.078394,0 120.544536,30.077266,0 120.544492,30.07253,0 120.544492,30.07253,0 120.544431,30.072344,0 120.544418,30.072257,0 120.544466,30.07056,0 120.544531,30.069883,0 120.544575,30.069583,0 120.544661,30.068945,0 120.544661,30.068945,0 120.54477,30.068424,0 120.54477,30.068424,0 120.544944,30.067405,0 120.544944,30.067405,0 120.544961,30.067331,0 120.544961,30.067331,0 120.545,30.067157,0 120.545,30.067157,0 120.545022,30.067062,0 120.545022,30.067062,0 120.545187,30.066363,0 120.546254,30.063112,0 120.54668,30.061793,0 120.546745,30.061545,0 120.546745,30.061545,0 120.547049,30.060365,0 120.547049,30.060365,0 120.547044,30.060286,0 120.547122,30.059974,0 120.547166,30.059718,0 120.547339,30.058594,0 120.547465,30.057769,0 120.547483,30.057582,0 120.547483,30.057582,0 120.547496,30.057457,0 120.547496,30.057457,0 120.5476,30.056133,0 120.5476,30.056133,0 120.547682,30.053924,0 120.547682,30.053924,0 120.547687,30.05362,0 120.547687,30.05362,0 120.547687,30.053524,0 120.547687,30.053524,0 120.547691,30.05224,0 120.547726,30.05128,0 120.547726,30.05128,0 120.547721,30.05076,0 120.547756,30.050178,0 120.547756,30.050178,0 120.547882,30.049106,0 120.548051,30.048016,0 120.548125,30.047609,0 120.548142,30.047535,0 120.548329,30.046701,0 120.548329,30.046701,0 120.548346,30.046649,0 120.548346,30.046649,0 120.548702,30.045278,0 120.548863,30.044714,0 120.549032,30.044188,0 120.549271,30.043507,0 120.549353,30.04339,0 120.549731,30.042344,0 120.549774,30.042279,0 120.549774,30.042279,0 120.550234,30.041016,0 120.550234,30.041016,0 120.550386,30.040625,0 120.550551,30.040417,0 120.550551,30.040417,0 120.550577,30.040347,0 120.550577,30.040347,0 120.550734,30.039488,0 120.550838,30.038576,0 120.550885,30.037995,0 120.550885,30.037548,0 120.550885,30.037548,0 120.55089,30.037292,0 120.550868,30.036623,0 120.550868,30.036593,0 120.550868,30.036593,0 120.550864,30.03648,0 120.550864,30.03648,0 120.550851,30.036398,0 120.550851,30.036398,0 120.550842,30.036298,0 120.550838,30.036293,0 120.551072,30.036259,0 120.551072,30.036254,0 120.551168,30.036063,0 120.551029,30.035382,0 120.550851,30.035048,0 120.550786,30.034596,0 120.550786,30.034596,0 120.550738,30.033898,0 120.550738,30.033898,0 120.550738,30.03339,0 120.550799,30.032773,0 120.550799,30.032773,0 120.550838,30.032509,0 120.550838,30.032509,0 120.550846,30.032461,0 120.550846,30.032461,0 120.550907,30.032148,0 120.550907,30.032148,0 120.551011,30.031706,0 120.551319,30.030603,0 120.55148,30.030365,0 120.551706,30.029544,0 120.551762,30.029436,0 120.55184,30.029345,0 120.551944,30.029266,0 120.551944,30.029262,0 120.552075,30.029214,0 120.552183,30.029188,0 120.552365,30.029184,0 120.552613,30.029206,0 120.553003,30.029162,0 120.553138,30.029128,0 120.553138,30.029128,0 120.555304,30.028689,0 120.55546,30.028598,0 120.55546,30.028598,0 120.556372,30.028394,0 120.55694,30.028229,0 120.557261,30.028108,0 120.557582,30.027977,0 120.558707,30.027413,0 120.558707,30.027413,0 120.559067,30.027231,0 120.559067,30.027231,0 120.559514,30.027005,0 120.559514,30.027005,0 120.559653,30.026966,0 120.560139,30.026727,0 120.560139,30.026727,0 120.560651,30.02648,0 120.560651,30.02648,0 120.562005,30.025885,0 120.562504,30.025638,0 120.562513,30.025629,0 120.563555,30.025009,0 120.563555,30.025009,0 120.563715,30.024918,0 120.563715,30.024918,0 120.563963,30.024779,0 120.56398,30.024761,0 120.56398,30.024761,0 120.564063,30.024718,0 120.564063,30.024718,0 120.564175,30.024661,0 120.564175,30.024661,0 120.564275,30.024614,0 120.564275,30.024614,0 120.564614,30.02444,0 120.564614,30.02444,0 120.56579,30.023876,0 120.565859,30.023828,0 120.565859,30.023828,0 120.565933,30.023785,0 120.566081,30.023733,0 120.566081,30.023733,0 120.566671,30.023568,0 120.566671,30.023568,0 120.567057,30.02349,0 120.568876,30.023238,0 120.568993,30.023203,0 120.568993,30.023203,0 120.569071,30.023203,0 120.569071,30.023199,0 120.569019,30.022869,0 120.569019,30.022869,0 120.568785,30.021549,0 120.568785,30.021549,0 120.568767,30.021458,0 120.568767,30.021458,0 120.56872,30.021133,0 120.56872,30.021133,0 120.56862,30.020525,0 120.56862,30.020525,0 120.568568,30.019983,0 120.568568,30.019983,0 120.568563,30.0198,0 120.568572,30.019475,0 120.568615,30.019128,0 120.568655,30.018889,0 120.568859,30.018077,0 120.568859,30.018077,0 120.569375,30.016146,0 120.56941,30.015959,0 120.569423,30.015642,0 120.569423,30.015451,0 120.569392,30.01523,0 120.569314,30.014918,0 120.569262,30.01474,0 120.569219,30.014648,0 120.569197,30.014609,0 120.56885,30.013997,0 120.568845,30.013993,0 120.568971,30.013937,0 120.568971,30.013937,0 120.569188,30.013824,0 120.569957,30.01329,0 120.569957,30.01329,0 120.570382,30.012995,0 120.570872,30.012739,0 120.570872,30.012739,0 120.570964,30.012691,0 120.570964,30.012691,0 120.571515,30.012405,0 120.571515,30.012405,0 120.572448,30.011914,0 120.572448,30.011914,0 120.573307,30.011463,0 120.573307,30.011463,0 120.573802,30.011202,0 120.573802,30.011198,0 120.573906,30.011111,0 120.574384,30.010838,0 120.574384,30.010838,0 120.575803,30.010039,0 120.575803,30.010039,0 120.576953,30.009336,0 120.577331,30.009123,0 120.577331,30.009123,0 120.577483,30.009019,0 120.577483,30.009019,0 120.578429,30.008437,0 120.578585,30.008325,0 120.578585,30.008325,0 120.57865,30.008268,0 120.578793,30.008186,0 120.57911,30.008038,0 120.57911,30.008038,0 120.579952,30.007609,0 120.579952,30.007609,0 120.58072,30.007049,0 120.58072,30.007049,0 120.58138,30.006645,0 120.581745,30.006497,0 120.581745,30.006493,0 120.581636,30.006133,0 120.581636,30.006133,0 120.581615,30.006076,0 120.581615,30.006076,0 120.581476,30.005629,0 120.581428,30.005425,0 120.581428,30.005425,0 120.581385,30.005191,0 120.58135,30.004787,0 120.581311,30.003859,0 120.581311,30.003859,0 120.581311,30.003811,0 120.581311,30.003811,0 120.581311,30.003776,0 120.581311,30.003776,0 120.581306,30.003663,0 120.581289,30.003273,0 120.581289,30.003273,0 120.581285,30.00309,0 120.581285,30.00309,0 120.581267,30.0026,0 120.581267,30.0026,0 120.581263,30.002409,0 120.581263,30.002409,0 120.581207,30.00184,0 120.581207,30.00184,0 120.581202,30.001788,0 120.581202,30.001788,0 120.581163,30.001402,0 120.581163,30.001402,0 120.581146,30.001189,0 120.581146,30.001189,0 120.581063,30.000312,0 120.581063,30.000312,0 120.58102,29.999149,0 120.58102,29.999149,0 120.581011,29.99895,0 120.581011,29.99895,0 120.580959,29.99849,0 120.580959,29.99849,0 120.580946,29.998212,0 120.580946,29.998212,0 120.580933,29.99786,0 120.580933,29.99786,0 120.58092,29.997439,0 120.58092,29.997439,0 120.580885,29.996606,0 120.580885,29.996606,0 120.580885,29.996549,0 120.580885,29.996549,0 120.580855,29.996042,0 120.580855,29.996042,0 120.580816,29.995495,0 120.580816,29.995495,0 120.580794,29.995161,0 120.580794,29.995161,0 120.580742,29.994232,0 120.580742,29.994232,0 120.580716,29.993954,0 120.580716,29.993954,0 120.580686,29.993355,0 120.580681,29.993351,0 120.580716,29.993346,0 120.580716,29.993346,0 120.580972,29.993273,0 120.580972,29.993273,0 120.581467,29.993016,0 120.581467,29.993016,0 120.581997,29.99273,0 120.581997,29.99273,0 120.582066,29.9927,0 120.582066,29.9927,0 120.582114,29.992678,0 120.5824,29.992556,0 120.5824,29.992556,0 120.582474,29.992522,0 120.582474,29.992522,0 120.583333,29.992183,0 120.583333,29.992183,0 120.583498,29.992114,0 120.583498,29.992114,0 120.583811,29.992014,0 120.583971,29.991988,0 120.583971,29.991988,0 120.584115,29.99197,0 120.584115,29.99197,0 120.584679,29.991923,0 120.584679,29.991923,0 120.585126,29.991888,0 120.585126,29.991884,0 120.585135,29.991944,0 120.585135,29.991944,0 120.585148,29.991997,0 120.585148,29.991997,0 120.585152,29.992044,0 120.585152,29.992044,0 120.585191,29.992261,0 120.585191,29.992261,0 120.585135,29.992266,0 120.585135,29.992266,0 120.585074,29.99227,0 120.585074,29.99227,0 120.584974,29.992283,0 120.584974,29.992283,0 120.584822,29.992296,0 120.584818,29.992296,0 120.584887,29.992674,0 120.584948,29.992999,0 120.584948,29.992999,0 120.584987,29.993168,0 120.584987,29.993168,0 120.584787,29.993199,0 120.584783,29.993199,0 120.584774,29.993073,0 120.58477,29.993069,0 120.584701,29.993108,0 120.584674,29.993138,0 120.584661,29.993216,0 120.584661,29.993216,0 120.584657,29.993216,0 120.584657,29.993216,0 120.58467,29.993142,0 120.584696,29.993112,0 120.58477,29.993073,0 120.58477,29.993069,0 120.584783,29.993199,0 120.584783,29.993199,0 120.584987,29.993173,0 120.584987,29.993173,0 120.5852,29.993142,0 120.585187,29.992982,0 120.585182,29.992977,0 120.58533,29.992973,0 120.58533,29.992969,0 120.585347,29.993021,0 120.585486,29.993021,0 120.585486,29.993021,0 120.585569,29.993016,0 120.585569,29.993012,0 120.585543,29.992769,0 120.585543,29.992769,0 120.585534,29.992678,0 120.585521,29.992569,0 120.585586,29.992561,0 120.585586,29.992561,0 120.585651,29.992548,0 120.585651,29.992543,0 120.58559,29.99217,0 120.58559,29.99217,0 120.585534,29.991866,0 120.58553,29.991862,0 120.585286,29.991875,0 120.585286,29.991875,0 120.58513,29.991884,0 120.58513,29.991884,0 120.584683,29.991918,0 120.584683,29.991918,0 120.584119,29.991966,0 120.584119,29.991966,0 120.583976,29.991984,0 120.583976,29.991984,0 120.583815,29.99201,0 120.583503,29.992109,0 120.583503,29.992109,0 120.583338,29.992179,0 120.583338,29.992179,0 120.582478,29.992517,0 120.582478,29.992517,0 120.582405,29.992552,0 120.582405,29.992552,0 120.582118,29.992674,0 120.58207,29.992695,0 120.58207,29.992695,0 120.582001,29.992726,0 120.582001,29.992726,0 120.581471,29.993012,0 120.581471,29.993012,0 120.580977,29.993268,0 120.580977,29.993268,0 120.58072,29.993342,0 120.58072,29.993342,0 120.580686,29.993351,0 120.580681,29.993351,0 120.580712,29.99395,0 120.580712,29.99395,0 120.580738,29.994227,0 120.580738,29.994227,0 120.58079,29.995156,0 120.58079,29.995156,0 120.580812,29.99549,0 120.580812,29.99549,0 120.580851,29.996037,0 120.580851,29.996037,0 120.580881,29.996545,0 120.580881,29.996545,0 120.579366,29.996606,0 120.579366,29.996606,0 120.578898,29.996615,0 120.578898,29.996615,0 120.578763,29.996623,0 120.578763,29.996623,0 120.577678,29.996667,0 120.577674,29.996667,0 120.577678,29.996719,0 120.577678,29.996719,0 120.577648,29.997361,0 120.577643,29.997361,0 120.57796,29.997387,0 120.57796,29.997387,0 120.577648,29.997365,0 120.577643,29.997361,0 120.577678,29.996723,0 120.577678,29.996719,0 120.578885,29.996688,0 120.578885,29.996688,0 120.579362,29.996667,0 120.579362,29.996667,0 120.579757,29.996649,0 120.579757,29.996649,0 120.580881,29.996606,0 120.580881,29.996606,0 120.580942,29.996606,0 120.580942,29.996606,0 120.581194,29.996597,0 120.581194,29.996597,0 120.581719,29.996593,0 120.581719,29.996593,0 120.582153,29.996584,0 120.582153,29.996584,0 120.582517,29.99658,0 120.582517,29.99658,0 120.582791,29.99658,0 120.582791,29.99658,0 120.583837,29.996567,0 120.583837,29.996567,0 120.584996,29.996567,0 120.584996,29.996567,0 120.58536,29.996567,0 120.58536,29.996567,0 120.585764,29.996562,0 120.585938,29.996536,0 120.585946,29.996536,0 120.585946,29.996536,0 120.586406,29.996432,0 120.586406,29.996432,0 120.586602,29.996389,0 120.586602,29.996389,0 120.587227,29.996233,0 120.587227,29.996233,0 120.587309,29.99622,0 120.587309,29.99622,0 120.587387,29.996202,0 120.587387,29.996202,0 120.588008,29.996063,0 120.588008,29.996063,0 120.58852,29.995977,0 120.58852,29.995977,0 120.58885,29.995929,0 120.58885,29.995929,0 120.589297,29.995885,0 120.589297,29.995885,0 120.589948,29.99582,0 120.589948,29.99582,0 120.590421,29.995777,0 120.590421,29.995777,0 120.590799,29.995755,0 120.590799,29.995755,0 120.591771,29.995707,0 120.591771,29.995707,0 120.592101,29.995694,0 120.592101,29.995694,0 120.593247,29.995642,0 120.593247,29.995642,0 120.593585,29.995634,0 120.593585,29.995634,0 120.593958,29.995616,0 120.593958,29.995612,0 120.59408,29.996332,0 120.59408,29.996332,0 120.594149,29.996727,0 120.594149,29.996727,0 120.594171,29.996832,0 120.594171,29.996832,0 120.594253,29.997418,0 120.594253,29.997418,0 120.594288,29.997626,0 120.594288,29.997626,0 120.594384,29.998168,0 120.594384,29.998168,0 120.594592,29.998885,0 120.594592,29.998885,0 120.594657,29.999106,0 120.594657,29.999106,0 120.594844,29.999058,0 120.595525,29.998945,0 120.595525,29.998945,0 120.596289,29.998832,0 120.596289,29.998832,0 120.596615,29.998789,0 120.596615,29.998789,0 120.596693,29.998776,0 120.596693,29.998776,0 120.59707,29.99872,0 120.597609,29.998685,0 120.597912,29.998694,0 120.598346,29.998741,0 120.598637,29.998789,0 120.598637,29.998789,0 120.599002,29.99885,0 120.599002,29.99885,0 120.599115,29.998863,0 120.599115,29.998863,0 120.599523,29.998928,0 120.599523,29.998928,0 120.599831,29.998976,0 120.600243,29.999015,0 120.600243,29.999015,0 120.600786,29.99911,0 120.600786,29.99911,0 120.600885,29.999128,0 120.600885,29.999128,0 120.601389,29.999201,0 120.601389,29.999201,0 120.601545,29.999227,0 120.601545,29.999227,0 120.601753,29.99924,0 120.602096,29.999336,0 120.602335,29.999384,0 120.602335,29.999384,0 120.60299,29.999497,0 120.60299,29.999497,0 120.603811,29.999622,0 120.603811,29.999622,0 120.605764,29.999931,0 120.605764,29.999931,0 120.607908,30.000269,0 120.609132,30.000464,0 120.609132,30.000464,0 120.609245,30.000477,0 120.609245,30.000477,0 120.609805,30.000586,0 120.610208,30.000647,0 120.610495,30.000647,0 120.61059,30.00066,0 120.61059,30.00066,0 120.610938,30.000751,0 120.612049,30.000942,0 120.612049,30.000942,0 120.612543,30.00102,0 120.612543,30.00102,0 120.61385,30.001224,0 120.61385,30.001224,0 120.614974,30.001406,0 120.614974,30.001406,0 120.616918,30.001719,0 120.617075,30.001736,0 120.617075,30.001736,0 120.617292,30.001749,0 120.618086,30.001927,0 120.618086,30.001927,0 120.618181,30.001949,0 120.618181,30.001949,0 120.618563,30.002023,0 120.619002,30.002066,0 120.619002,30.002066,0 120.619297,30.002044,0 120.619505,30.002044,0 120.619505,30.002044,0 120.619905,30.002057,0 120.620169,30.002131,0 120.620169,30.002131,0 120.620885,30.002135,0 120.620885,30.002135,0 120.621293,30.00214,0 120.621293,30.00214,0 120.621914,30.002157,0 120.621914,30.002157,0 120.622396,30.002157,0 120.622396,30.002157,0 120.623164,30.002118,0 120.623533,30.002127,0 120.623533,30.002127,0 120.623976,30.002118,0 120.623976,30.002118,0 120.624727,30.002114,0 120.624727,30.002114,0 120.625156,30.002114,0 120.625156,30.002114,0 120.625395,30.002122,0 120.625647,30.002179,0 120.625647,30.002179,0 120.625868,30.002179,0 120.626089,30.002183,0 120.626089,30.002183,0 120.626237,30.002183,0 120.626385,30.002179,0 120.626385,30.002179,0 120.62658,30.002135,0 120.62658,30.002135,0 120.627431,30.002135,0 120.627431,30.002135,0 120.627591,30.002135,0 120.627591,30.002135,0 120.628134,30.002135,0 120.628134,30.002135,0 120.629076,30.002127,0 120.629076,30.002127,0 120.629145,30.002127,0 120.629145,30.002122,0 120.629145,30.00204,0 120.629145,30.00204,0 120.629145,30.001949,0 120.629145,30.001944,0 120.62908,30.001944,0 120.62908,30.001944,0 120.629019,30.001944,0 120.629019,30.001944,0 120.628911,30.001953,0 120.628906,30.001953,0 120.628867,30.001836,0 120.628837,30.001701,0 120.628837,30.001701,0 120.628837,30.001697,0 120.628919,30.001528,0 120.629015,30.001389,0 120.629076,30.001345,0 120.629076,30.001345,0 120.629106,30.001324,0 120.629249,30.001267,0 120.62934,30.001185,0 120.629453,30.001063,0 120.629453,30.001059,0 120.629553,30.000964,0 120.629553,30.000959,0 120.629627,30.000894,0 120.62974,30.000742,0 120.629718,30.000421,0 120.629718,30.000421,0 120.629648,30.000369,0 120.629449,30.000161,0 120.629427,29.999922,0 120.629423,29.999918,0 120.629423,29.999714,0 120.62947,29.999648,0 120.62947,29.999644,0 120.63013,29.99957,0 120.6302,29.999553,0 120.6302,29.999553,0 120.630799,29.999444,0 120.630799,29.99944,0 120.63082,29.999379,0 120.63082,29.999379,0 120.630868,29.999201,0 120.630868,29.999197,0 120.631541,29.999041,0 120.631541,29.999036,0 120.631519,29.999032,0 120.631536,29.99895,0 120.631536,29.99895,0 120.631563,29.99885,0 120.631563,29.998845,0 120.631671,29.998793,0 120.631671,29.998793,0 120.631793,29.998798,0 120.631884,29.99878,0 120.631931,29.998737,0 120.631914,29.998663,0 120.631849,29.998581,0 120.631845,29.998576,0 120.63191,29.998659,0 120.631931,29.998733,0 120.631888,29.998776,0 120.631797,29.998798,0 120.631675,29.998793,0 120.631675,29.998793,0 120.631567,29.998845,0 120.631563,29.998845,0 120.631541,29.998945,0 120.631541,29.998945,0 120.631519,29.999028,0 120.631541,29.999036,0 120.631541,29.999036,0 120.630872,29.999197,0 120.630868,29.999197,0 120.630825,29.999375,0 120.630825,29.999375,0 120.630803,29.99944,0 120.630799,29.99944,0 120.630204,29.999549,0 120.630204,29.999549,0 120.630135,29.999566,0 120.629475,29.999644,0 120.62947,29.999644,0 120.629427,29.999709,0 120.629427,29.999918,0 120.629423,29.999918,0 120.629444,30.000156,0 120.629644,30.000365,0 120.629714,30.000417,0 120.629714,30.000417,0 120.62974,30.000738,0 120.629631,30.00089,0 120.629557,30.000959,0 120.629553,30.000959,0 120.629457,30.001059,0 120.629453,30.001059,0 120.62934,30.001181,0 120.629253,30.001263,0 120.62911,30.001319,0 120.62908,30.001341,0 120.62908,30.001341,0 120.629019,30.001385,0 120.628924,30.001528,0 120.628841,30.001697,0 120.628841,30.001697,0 120.628832,30.001697,0 120.628863,30.001832,0 120.628906,30.001953,0 120.628906,30.001953,0 120.629015,30.001949,0 120.629015,30.001949,0 120.629076,30.001949,0 120.629076,30.001949,0 120.629145,30.001949,0 120.629145,30.001944,0 120.629145,30.002036,0 120.629145,30.002036,0 120.629145,30.002122,0 120.629145,30.002122,0 120.62908,30.002122,0 120.62908,30.002122,0 120.628138,30.002131,0 120.628138,30.002131,0 120.627595,30.002131,0 120.627595,30.002131,0 120.627435,30.002131,0 120.627435,30.002131,0 120.626584,30.002131,0 120.626584,30.002131,0 120.626389,30.002174,0 120.626389,30.002174,0 120.626241,30.002179,0 120.626094,30.002183,0 120.626094,30.002183,0 120.625872,30.002183,0 120.625651,30.002183,0 120.625651,30.002183,0 120.625399,30.002127,0 120.625161,30.002118,0 120.625161,30.002118,0 120.624731,30.002114,0 120.624731,30.002114,0 120.62398,30.002114,0 120.62398,30.002114,0 120.623537,30.002127,0 120.623537,30.002127,0 120.623168,30.002118,0 120.6224,30.002157,0 120.6224,30.002157,0 120.621918,30.002157,0 120.621918,30.002157,0 120.621298,30.002144,0 120.621298,30.002144,0 120.62089,30.00214,0 120.62089,30.00214,0 120.620174,30.002135,0 120.620174,30.002135,0 120.619909,30.002062,0 120.61951,30.002044,0 120.61951,30.002044,0 120.619301,30.002044,0 120.619006,30.002066,0 120.619006,30.002066,0 120.618568,30.002027,0 120.618186,30.001953,0 120.618186,30.001953,0 120.61809,30.001931,0 120.61809,30.001931,0 120.617296,30.001753,0 120.617079,30.001736,0 120.617079,30.001736,0 120.616923,30.001723,0 120.614978,30.001411,0 120.614978,30.001411,0 120.613854,30.001228,0 120.613854,30.001228,0 120.612548,30.001024,0 120.612548,30.001024,0 120.612053,30.000946,0 120.612053,30.000946,0 120.610942,30.000755,0 120.610595,30.000664,0 120.610595,30.000664,0 120.610499,30.000651,0 120.610213,30.000651,0 120.609809,30.00059,0 120.609249,30.000482,0 120.609249,30.000482,0 120.609136,30.000469,0 120.609136,30.000469,0 120.607912,30.000273,0 120.605768,29.999935,0 120.605768,29.999935,0 120.603815,29.999627,0 120.603815,29.999627,0 120.602995,29.999501,0 120.602995,29.999501,0 120.602339,29.999388,0 120.602339,29.999388,0 120.602101,29.99934,0 120.601758,29.999245,0 120.601549,29.999232,0 120.601549,29.999232,0 120.601393,29.999206,0 120.601393,29.999206,0 120.60089,29.999132,0 120.60089,29.999132,0 120.60079,29.999115,0 120.60079,29.999115,0 120.600247,29.999019,0 120.600247,29.999019,0 120.599835,29.99898,0 120.599527,29.998932,0 120.599527,29.998932,0 120.599119,29.998867,0 120.599119,29.998867,0 120.599006,29.998854,0 120.599006,29.998854,0 120.598641,29.998793,0 120.598641,29.998793,0 120.598351,29.998746,0 120.597917,29.998698,0 120.597613,29.998685,0 120.597075,29.998715,0 120.596697,29.998772,0 120.596697,29.998772,0 120.596619,29.998785,0 120.596619,29.998785,0 120.596293,29.998828,0 120.596293,29.998828,0 120.59553,29.998941,0 120.59553,29.998941,0 120.594848,29.999054,0 120.594661,29.999106,0 120.594657,29.999106,0 120.594596,29.998889,0 120.594596,29.998889,0 120.594388,29.998173,0 120.594384,29.998168,0 120.593589,29.998216,0 120.593589,29.998216,0 120.592969,29.99826,0 120.592969,29.99826,0 120.592812,29.99826,0 120.592812,29.99826,0 120.592587,29.998281,0 120.592587,29.998281,0 120.591836,29.99832,0 120.591836,29.99832,0 120.590773,29.998398,0 120.590773,29.998398,0 120.589744,29.998485,0 120.589744,29.998485,0 120.589475,29.99849,0 120.589475,29.99849,0 120.589206,29.998494,0 120.589206,29.998494,0 120.588685,29.99852,0 120.588685,29.99852,0 120.588051,29.998563,0 120.588051,29.998563,0 120.587352,29.998611,0 120.587352,29.998611,0 120.587279,29.998611,0 120.587279,29.998611,0 120.587222,29.998611,0 120.587222,29.998611,0 120.587088,29.998611,0 120.587088,29.998611,0 120.586719,29.998633,0 120.586719,29.998633,0 120.586458,29.998646,0 120.586458,29.998646,0 120.585938,29.998668,0 120.585868,29.998668,0 120.585868,29.998668,0 120.585378,29.998685,0 120.585378,29.998685,0 120.584974,29.998707,0 120.584974,29.998707,0 120.584748,29.99872,0 120.584748,29.99872,0 120.584171,29.99875,0 120.584171,29.99875,0 120.583767,29.998772,0 120.583767,29.998772,0 120.583607,29.998806,0 120.583264,29.998815,0 120.583264,29.998815,0 120.583034,29.998819,0 120.582904,29.998802,0 120.582904,29.998802,0 120.582522,29.998841,0 120.582522,29.998841,0 120.582266,29.998872,0 120.582266,29.998872,0 120.58217,29.998876,0 120.58217,29.998876,0 120.581884,29.998889,0 120.581884,29.998889,0 120.581315,29.998928,0 120.581315,29.998928,0 120.581272,29.998928,0 120.581272,29.998928,0 120.581081,29.998941,0 120.581081,29.998941,0 120.581011,29.998945,0 120.581007,29.998945,0 120.581016,29.999145,0 120.581016,29.999145,0 120.581059,30.000308,0 120.581059,30.000308,0 120.580842,30.000365,0 120.580608,30.00036,0 120.580608,30.00036,0 120.579857,30.000273,0 120.579857,30.000273,0 120.578919,30.000156,0 120.578919,30.000156,0 120.578477,30.000113,0 120.578472,30.000109,0 120.578034,30.000069,0 120.578034,30.000069,0 120.577491,29.999996,0 120.577487,29.999991,0 120.57747,30.000195,0 120.577465,30.000543,0 120.577465,30.000543,0 120.577452,30.001094,0 120.577452,30.001094,0 120.577452,30.001628,0 120.577487,30.001858,0 120.577491,30.002023,0 120.577491,30.002023,0 120.57747,30.002114,0 120.57747,30.002114,0 120.577582,30.00283,0 120.577582,30.00283,0 120.5776,30.00316,0 120.577582,30.003546,0 120.577582,30.003546,0 120.577582,30.003659,0 120.577582,30.003659,0 120.577565,30.004084,0 120.577561,30.004084,0 120.577457,30.004102,0 120.577457,30.004102,0 120.576793,30.004149,0 120.576793,30.004149,0 120.576194,30.004201,0 120.576194,30.004201,0 120.575955,30.004223,0 120.575569,30.00434,0 120.575569,30.00434,0 120.575273,30.004401,0 120.575017,30.004427,0 120.575017,30.004427,0 120.5749,30.004436,0 120.5749,30.004436,0 120.574601,30.004444,0 120.574601,30.004444,0 120.573746,30.004449,0 120.573628,30.004514,0 120.573628,30.004514,0 120.573364,30.00451,0 120.57322,30.004518,0 120.57322,30.004518,0 120.572873,30.004418,0 120.572873,30.004418,0 120.572791,30.004392,0 120.572791,30.004392,0 120.572517,30.004314,0 120.572331,30.004288,0 120.572331,30.004288,0 120.571771,30.004271,0 120.571771,30.004271,0 120.571545,30.004271,0 120.571545,30.004271,0 120.571215,30.004271,0 120.571215,30.004271,0 120.570538,30.004275,0 120.570534,30.004275,0 120.570538,30.004562,0 120.570516,30.005221,0 120.570516,30.005221,0 120.570499,30.00533,0 120.570499,30.00533,0 120.570456,30.005638,0 120.570456,30.005638,0 120.57036,30.006133,0 120.57036,30.006133,0 120.570326,30.006311,0 120.570326,30.006311,0 120.570234,30.006584,0 120.570234,30.006584,0 120.570152,30.006819,0 120.570152,30.006819,0 120.570091,30.006997,0 120.570091,30.006997,0 120.57,30.007287,0 120.57,30.007287,0 120.569896,30.007656,0 120.569896,30.007656,0 120.569874,30.007773,0 120.569874,30.007773,0 120.569792,30.008155,0 120.569792,30.008155,0 120.56977,30.008264,0 120.56977,30.008264,0 120.569744,30.00842,0 120.569744,30.00842,0 120.569714,30.008585,0 120.569714,30.008585,0 120.569679,30.008746,0 120.569679,30.008746,0 120.569601,30.009093,0 120.569601,30.009093,0 120.569492,30.00957,0 120.569492,30.00957,0 120.569375,30.010065,0 120.569375,30.010065,0 120.569306,30.010408,0 120.569306,30.010408,0 120.56918,30.010911,0 120.569175,30.010911,0 120.56888,30.011111,0 120.568876,30.011111,0 120.568568,30.01112,0 120.568451,30.011107,0 120.568446,30.011098,0 120.568142,30.011602,0 120.568142,30.011602,0 120.568138,30.011606,0 120.567609,30.011984,0 120.567609,30.011984,0 120.567374,30.012148,0 120.567374,30.012148,0 120.566528,30.012678,0 120.566528,30.012678,0 120.564401,30.014015,0 120.564401,30.014015,0 120.563967,30.01428,0 120.563789,30.014392,0 120.563789,30.014392,0 120.563394,30.014644,0 120.561892,30.015595,0 120.561892,30.015595,0 120.561806,30.015651,0 120.561806,30.015651,0 120.561732,30.015699,0 120.561732,30.015699,0 120.561641,30.015755,0 120.561641,30.015755,0 120.560929,30.016207,0 120.560929,30.016207,0 120.560347,30.016584,0 120.560347,30.016584,0 120.559154,30.017326,0 120.559149,30.017326,0 120.559206,30.017409,0 120.559206,30.017409,0 120.559275,30.017539,0 120.559271,30.017591,0 120.559062,30.017773,0 120.559062,30.017773,0 120.55839,30.018264,0 120.557786,30.018641,0 120.557786,30.018641,0 120.556241,30.01954,0 120.556241,30.01954,0 120.555187,30.02003,0 120.555187,30.02003,0 120.553928,30.020747,0 120.553928,30.020747,0 120.553585,30.020937,0 120.55326,30.021185,0 120.553242,30.021228,0 120.553247,30.02128,0 120.553325,30.021502,0 120.553325,30.021502,0 120.553464,30.021814,0 120.553455,30.022088,0 120.553381,30.022235,0 120.553312,30.022326,0 120.55322,30.022405,0 120.553121,30.022461,0 120.553003,30.022504,0 120.552882,30.022526,0 120.552756,30.022539,0 120.552539,30.0225,0 120.552422,30.022457,0 120.552326,30.022387,0 120.552096,30.022174,0 120.552092,30.02217,0 120.55201,30.022617,0 120.55191,30.02332,0 120.551875,30.023438,0 120.551788,30.023646,0 120.551723,30.023759,0 120.551445,30.024132,0 120.551441,30.024132,0 120.551975,30.024735,0 120.551975,30.024735,0 120.552235,30.025009,0 120.552235,30.025009,0 120.552383,30.025135,0 120.552383,30.025135,0 120.552352,30.025634,0 120.552352,30.025664,0 120.552287,30.02605,0 120.552287,30.02605,0 120.552196,30.026484,0 120.552196,30.026484,0 120.55181,30.02776,0 120.55181,30.02776,0 120.551623,30.028429,0 120.551619,30.028429,0 120.551502,30.028598,0 120.551402,30.028702,0 120.551402,30.028702,0 120.551619,30.028911,0 120.551619,30.028911,0 120.551576,30.029062,0 120.551571,30.029058,0 120.551285,30.029219,0 120.551285,30.029219,0 120.551246,30.029236,0 120.551246,30.029236,0 120.551302,30.029375,0 120.551319,30.029462,0 120.551311,30.029549,0 120.551168,30.03003,0 120.551181,30.030213,0 120.550799,30.031597,0 120.550799,30.031597,0 120.550738,30.03184,0 120.550616,30.032422,0 120.550616,30.032422,0 120.550608,30.032478,0 120.550608,30.032478,0 120.550516,30.033147,0 120.550495,30.033668,0 120.550499,30.033906,0 120.550499,30.033906,0 120.550547,30.034614,0 120.550547,30.034614,0 120.550621,30.035213,0 120.550586,30.03536,0 120.550586,30.035456,0 120.55069,30.036137,0 120.550838,30.036293,0 120.550838,30.036293,0 120.550846,30.036393,0 120.550846,30.036393,0 120.550859,30.036476,0 120.550859,30.036476,0 120.550864,30.036589,0 120.550864,30.036589,0 120.550864,30.036619,0 120.55089,30.037287,0 120.55089,30.037543,0 120.55089,30.037543,0 120.55089,30.03799,0 120.550842,30.038572,0 120.550738,30.039484,0 120.550582,30.040343,0 120.550582,30.040343,0 120.550556,30.040412,0 120.550556,30.040412,0 120.550391,30.040621,0 120.550239,30.041011,0 120.550239,30.041011,0 120.549779,30.042274,0 120.549779,30.042274,0 120.549735,30.042339,0 120.549358,30.043385,0 120.549275,30.043503,0 120.549036,30.044184,0 120.548867,30.044709,0 120.548707,30.045273,0 120.548351,30.046645,0 120.548351,30.046645,0 120.548333,30.046697,0 120.548333,30.046697,0 120.548147,30.04753,0 120.548129,30.047604,0 120.548056,30.048012,0 120.547886,30.049102,0 120.54776,30.050174,0 120.54776,30.050174,0 120.547721,30.050755,0 120.547726,30.051276,0 120.547726,30.051276,0 120.547695,30.052235,0 120.547691,30.05352,0 120.547691,30.05352,0 120.547691,30.053615,0 120.547691,30.053615,0 120.547687,30.053919,0 120.547687,30.053919,0 120.547604,30.056128,0 120.547604,30.056128,0 120.5475,30.057452,0 120.5475,30.057452,0 120.547487,30.057578,0 120.547487,30.057578,0 120.54747,30.057765,0 120.547344,30.058589,0 120.54717,30.059714,0 120.547127,30.05997,0 120.547044,30.060282,0 120.547049,30.06036,0 120.547049,30.06036,0 120.546749,30.061541,0 120.546749,30.061541,0 120.546684,30.061788,0 120.546259,30.063108,0 120.545191,30.066359,0 120.545026,30.067057,0 120.545026,30.067057,0 120.545004,30.067153,0 120.545004,30.067153,0 120.544965,30.067326,0 120.544965,30.067326,0 120.544948,30.0674,0 120.544948,30.0674,0 120.544774,30.06842,0 120.544774,30.06842,0 120.544666,30.068941,0 120.544666,30.068941,0 120.544579,30.069579,0 120.544536,30.069878,0 120.54447,30.070556,0 120.544418,30.072253,0 120.544427,30.072339,0 120.544488,30.072526,0 120.544488,30.072526,0 120.544531,30.077261,0 120.544562,30.07839,0 120.544562,30.07839,0 120.544566,30.078459,0 120.544566,30.078459,0 120.544579,30.078563,0 120.544579,30.078563,0 120.54467,30.080564,0 120.544687,30.080816,0 120.544687,30.080816,0 120.544683,30.081016,0 120.544722,30.081536,0 120.544813,30.082201,0 120.544913,30.082786,0 120.545273,30.08408,0 120.545273,30.08408,0 120.545217,30.084184,0 120.545161,30.084249,0 120.545156,30.084249,0 120.545391,30.08444,0 120.545391,30.08444,0 120.545391,30.084444,0 120.54543,30.084549,0 120.54543,30.084549,0 120.545868,30.086016,0 120.546115,30.086775,0 120.546115,30.086775,0 120.546133,30.086823,0 120.546133,30.086823,0 120.546428,30.087713,0 120.546428,30.087713,0 120.546428,30.087773,0 120.546619,30.088407,0 120.546619,30.088407,0 120.546636,30.088468,0 120.546693,30.088516,0 120.546693,30.088516,0 120.545638,30.089015,0 120.545638,30.089015,0 120.54474,30.089479,0 120.544423,30.089666,0 120.544123,30.08987,0 120.543772,30.090156,0 120.543772,30.090156,0 120.543459,30.09046,0 120.543225,30.090734,0 120.543099,30.090903,0 120.543099,30.090903,0 120.543038,30.090981,0 120.542817,30.091354,0 120.542817,30.091354,0 120.542726,30.091497,0 120.542704,30.091549,0 120.542617,30.091736,0 120.542166,30.092912,0 120.542166,30.092912,0 120.542148,30.092969,0 120.542148,30.092969,0 120.542118,30.093073,0 120.542118,30.093073,0 120.541992,30.093403,0 120.541619,30.094418,0 120.541619,30.094418,0 120.541298,30.095317,0 120.541207,30.095629,0 120.541207,30.095629,0 120.541194,30.095755,0 120.541194,30.095755,0 120.541202,30.095833,0 120.541189,30.096411,0 120.541189,30.096411,0 120.541233,30.098594,0 120.541233,30.098594,0 120.541233,30.098676,0 120.54128,30.098893,0 120.541272,30.098919,0 120.541202,30.098941,0 120.541198,30.098941,0 120.541059,30.098971,0 120.541059,30.098971,0 120.539931,30.099201,0 120.539931,30.099201,0 120.539831,30.099214,0 120.539748,30.099206,0 120.539692,30.099171,0 120.539683,30.099102,0 120.539692,30.099076,0 120.539692,30.099076,0 120.539562,30.098841,0 120.539562,30.098841,0 120.539544,30.098811,0 120.539453,30.098702,0 120.539444,30.098698,0</coordinates></LineString></Placemark>
</Folder>
</Document></kml>