<?xml version="1.0" encoding="UTF-8"?>
<gpx version="1.1" creator="travel-planner" xmlns="http://www.topografix.com/GPX/1/1">
<metadata><name>绍兴 行程路线图</name></metadata>
<wpt lat="30.098661" lon="120.539485"><name>绍兴北站（到达）</name><desc>09:48 D3201 到达；出站按指示换乘地铁1号线（支线往黄酒小镇方向），约30-35分钟、5元/人到鲁迅故里站；赶时间3人打车约25-30分钟、40-55元</desc></wpt>
<wpt lat="29.993263" lon="120.584419"><name>鲁迅故里</name><desc>游览顺序：鲁迅祖居→三味书屋（找书桌『早』字）→鲁迅故居→百草园→鲁迅纪念馆；10:30场可顺带看笔下风情园免费沉浸式活动《那一年的语文课》；故里内乌篷船河道窄不推荐，船留给东湖；出口街区黄酒棒冰/黄酒奶茶文创多，穷游控手</desc></wpt>
<wpt lat="29.997525" lon="120.577947"><name>仓桥直街</name><desc>从鲁迅故里步行约650米；全长1.5公里、清末民初43个台门，府山横街往北一段最热闹；扫街当午餐：臭豆腐约10元/份、奶油小攀约5元、黄酒棒冰约5元、梅干菜扣肉饭约15元；认准现炸酥脆配甜面酱+辣椒酱的摊位</desc></wpt>
<wpt lat="29.998452" lon="120.632047"><name>东湖景区（乌篷船）</name><desc>乘乌篷船穿崖壁、钻陶公洞是全天精华（86版《西游记》女儿国取景地），约20-30分钟；3人拼一条船；从仓桥直街/鲁迅故里乘公交1路/57路约2元或打车3人分摊约5元/人；景区不大，2小时含船足够</desc></wpt>
<wpt lat="30.000241" lon="120.578458"><name>寻宝记状元楼（鲁迅故里店）</name><desc></desc></wpt>
<wpt lat="30.098661" lon="120.539485"><name>绍兴北站（返程）</name><desc>18:30前从鲁迅故里地铁站进站（硬卡点），地铁约30-35分钟，19:05前到站；安检高峰多留10分钟</desc></wpt>
<trk><name>Day1 跟着课本游绍兴：鲁迅故里→仓桥直街→东湖乌篷船</name><trkseg>
<trkpt lat="30.098694" lon="120.53944"></trkpt>
<trkpt lat="30.098698" lon="120.539449"></trkpt>
<trkpt lat="30.098806" lon="120.53954"></trkpt>
<trkpt lat="30.098837" lon="120.539557"></trkpt>
<trkpt lat="30.098837" lon="120.539557"></trkpt>
<trkpt lat="30.099071" lon="120.539692"></trkpt>
<trkpt lat="30.099071" lon="120.539692"></trkpt>
<trkpt lat="30.099097" lon="120.539683"></trkpt>
<trkpt lat="30.099167" lon="120.539687"></trkpt>
<trkpt lat="30.099201" lon="120.539744"></trkpt>
<trkpt lat="30.099214" lon="120.539826"></trkpt>
<trkpt lat="30.099206" lon="120.539926"></trkpt>
<trkpt lat="30.099206" lon="120.539926"></trkpt>
<trkpt lat="30.098976" lon="120.541055"></trkpt>
<trkpt lat="30.098976" lon="120.541055"></trkpt>
<trkpt lat="30.098945" lon="120.541198"></trkpt>
<trkpt lat="30.098941" lon="120.541198"></trkpt>
<trkpt lat="30.098924" lon="120.541267"></trkpt>
<trkpt lat="30.098898" lon="120.54128"></trkpt>
<trkpt lat="30.098681" lon="120.541237"></trkpt>
<trkpt lat="30.098598" lon="120.541237"></trkpt>
<trkpt lat="30.098598" lon="120.541237"></trkpt>
<trkpt lat="30.096415" lon="120.541189"></trkpt>
<trkpt lat="30.096415" lon="120.541189"></trkpt>
<trkpt lat="30.095833" lon="120.541202"></trkpt>
<trkpt lat="30.09576" lon="120.541194"></trkpt>
<trkpt lat="30.09576" lon="120.541194"></trkpt>
<trkpt lat="30.095634" lon="120.541202"></trkpt>
<trkpt lat="30.095634" lon="120.541202"></trkpt>
<trkpt lat="30.095321" lon="120.541293"></trkpt>
<trkpt lat="30.094423" lon="120.541615"></trkpt>
<trkpt lat="30.094423" lon="120.541615"></trkpt>
<trkpt lat="30.093407" lon="120.541988"></trkpt>
<trkpt lat="30.093077" lon="120.542114"></trkpt>
<trkpt lat="30.093077" lon="120.542114"></trkpt>
<trkpt lat="30.092973" lon="120.542144"></trkpt>
<trkpt lat="30.092973" lon="120.542144"></trkpt>
<trkpt lat="30.092917" lon="120.542161"></trkpt>
<trkpt lat="30.092917" lon="120.542161"></trkpt>
<trkpt lat="30.09174" lon="120.542613"></trkpt>
<trkpt lat="30.091554" lon="120.5427"></trkpt>
<trkpt lat="30.091502" lon="120.542721"></trkpt>
<trkpt lat="30.091354" lon="120.542812"></trkpt>
<trkpt lat="30.091354" lon="120.542812"></trkpt>
<trkpt lat="30.090985" lon="120.543034"></trkpt>
<trkpt lat="30.090907" lon="120.543095"></trkpt>
<trkpt lat="30.090907" lon="120.543095"></trkpt>
<trkpt lat="30.090738" lon="120.54322"></trkpt>
<trkpt lat="30.090464" lon="120.543455"></trkpt>
<trkpt lat="30.090161" lon="120.543767"></trkpt>
<trkpt lat="30.090161" lon="120.543767"></trkpt>
<trkpt lat="30.089874" lon="120.544119"></trkpt>
<trkpt lat="30.08967" lon="120.544418"></trkpt>
<trkpt lat="30.089484" lon="120.544735"></trkpt>
<trkpt lat="30.089019" lon="120.545634"></trkpt>
<trkpt lat="30.089019" lon="120.545634"></trkpt>
<trkpt lat="30.08852" lon="120.546693"></trkpt>
<trkpt lat="30.088516" lon="120.546693"></trkpt>
<trkpt lat="30.088472" lon="120.546641"></trkpt>
<trkpt lat="30.088411" lon="120.546623"></trkpt>
<trkpt lat="30.088411" lon="120.546623"></trkpt>
<trkpt lat="30.087778" lon="120.546432"></trkpt>
<trkpt lat="30.087717" lon="120.546432"></trkpt>
<trkpt lat="30.087717" lon="120.546432"></trkpt>
<trkpt lat="30.086827" lon="120.546137"></trkpt>
<trkpt lat="30.086827" lon="120.546137"></trkpt>
<trkpt lat="30.08678" lon="120.54612"></trkpt>
<trkpt lat="30.08678" lon="120.54612"></trkpt>
<trkpt lat="30.08602" lon="120.545872"></trkpt>
<trkpt lat="30.084553" lon="120.545434"></trkpt>
<trkpt lat="30.084553" lon="120.545434"></trkpt>
<trkpt lat="30.084449" lon="120.545395"></trkpt>
<trkpt lat="30.08444" lon="120.545391"></trkpt>
<trkpt lat="30.084253" lon="120.545161"></trkpt>
<trkpt lat="30.084253" lon="120.545161"></trkpt>
<trkpt lat="30.084188" lon="120.545213"></trkpt>
<trkpt lat="30.084084" lon="120.545273"></trkpt>
<trkpt lat="30.08408" lon="120.545273"></trkpt>
<trkpt lat="30.082791" lon="120.544918"></trkpt>
<trkpt lat="30.082205" lon="120.544818"></trkpt>
<trkpt lat="30.081541" lon="120.544727"></trkpt>
<trkpt lat="30.08102" lon="120.544683"></trkpt>
<trkpt lat="30.08082" lon="120.544687"></trkpt>
<trkpt lat="30.08082" lon="120.544687"></trkpt>
<trkpt lat="30.080569" lon="120.544674"></trkpt>
<trkpt lat="30.078568" lon="120.544583"></trkpt>
<trkpt lat="30.078568" lon="120.544583"></trkpt>
<trkpt lat="30.078464" lon="120.54457"></trkpt>
<trkpt lat="30.078464" lon="120.54457"></trkpt>
<trkpt lat="30.078394" lon="120.544566"></trkpt>
<trkpt lat="30.078394" lon="120.544566"></trkpt>
<trkpt lat="30.077266" lon="120.544536"></trkpt>
<trkpt lat="30.07253" lon="120.544492"></trkpt>
<trkpt lat="30.07253" lon="120.544492"></trkpt>
<trkpt lat="30.072344" lon="120.544431"></trkpt>
<trkpt lat="30.072257" lon="120.544418"></trkpt>
<trkpt lat="30.07056" lon="120.544466"></trkpt>
<trkpt lat="30.069883" lon="120.544531"></trkpt>
<trkpt lat="30.069583" lon="120.544575"></trkpt>
<trkpt lat="30.068945" lon="120.544661"></trkpt>
<trkpt lat="30.068945" lon="120.544661"></trkpt>
<trkpt lat="30.068424" lon="120.54477"></trkpt>
<trkpt lat="30.068424" lon="120.54477"></trkpt>
<trkpt lat="30.067405" lon="120.544944"></trkpt>
<trkpt lat="30.067405" lon="120.544944"></trkpt>
<trkpt lat="30.067331" lon="120.544961"></trkpt>
<trkpt lat="30.067331" lon="120.544961"></trkpt>
<trkpt lat="30.067157" lon="120.545"></trkpt>
<trkpt lat="30.067157" lon="120.545"></trkpt>
<trkpt lat="30.067062" lon="120.545022"></trkpt>
<trkpt lat="30.067062" lon="120.545022"></trkpt>
<trkpt lat="30.066363" lon="120.545187"></trkpt>
<trkpt lat="30.063112" lon="120.546254"></trkpt>
<trkpt lat="30.061793" lon="120.54668"></trkpt>
<trkpt lat="30.061545" lon="120.546745"></trkpt>
<trkpt lat="30.061545" lon="120.546745"></trkpt>
<trkpt lat="30.060365" lon="120.547049"></trkpt>
<trkpt lat="30.060365" lon="120.547049"></trkpt>
<trkpt lat="30.060286" lon="120.547044"></trkpt>
<trkpt lat="30.059974" lon="120.547122"></trkpt>
<trkpt lat="30.059718" lon="120.547166"></trkpt>
<trkpt lat="30.058594" lon="120.547339"></trkpt>
<trkpt lat="30.057769" lon="120.547465"></trkpt>
<trkpt lat="30.057582" lon="120.547483"></trkpt>
<trkpt lat="30.057582" lon="120.547483"></trkpt>
<trkpt lat="30.057457" lon="120.547496"></trkpt>
<trkpt lat="30.057457" lon="120.547496"></trkpt>
<trkpt lat="30.056133" lon="120.5476"></trkpt>
<trkpt lat="30.056133" lon="120.5476"></trkpt>
<trkpt lat="30.053924" lon="120.547682"></trkpt>
<trkpt lat="30.053924" lon="120.547682"></trkpt>
<trkpt lat="30.05362" lon="120.547687"></trkpt>
<trkpt lat="30.05362" lon="120.547687"></trkpt>
<trkpt lat="30.053524" lon="120.547687"></trkpt>
<trkpt lat="30.053524" lon="120.547687"></trkpt>
<trkpt lat="30.05224" lon="120.547691"></trkpt>
<trkpt lat="30.05128" lon="120.547726"></trkpt>
<trkpt lat="30.05128" lon="120.547726"></trkpt>
<trkpt lat="30.05076" lon="120.547721"></trkpt>
<trkpt lat="30.050178" lon="120.547756"></trkpt>
<trkpt lat="30.050178" lon="120.547756"></trkpt>
<trkpt lat="30.049106" lon="120.547882"></trkpt>
<trkpt lat="30.048016" lon="120.548051"></trkpt>
<trkpt lat="30.047609" lon="120.548125"></trkpt>
<trkpt lat="30.047535" lon="120.548142"></trkpt>
<trkpt lat="30.046701" lon="120.548329"></trkpt>
<trkpt lat="30.046701" lon="120.548329"></trkpt>
<trkpt lat="30.046649" lon="120.548346"></trkpt>
<trkpt lat="30.046649" lon="120.548346"></trkpt>
<trkpt lat="30.045278" lon="120.548702"></trkpt>
<trkpt lat="30.044714" lon="120.548863"></trkpt>
<trkpt lat="30.044188" lon="120.549032"></trkpt>
<trkpt lat="30.043507" lon="120.549271"></trkpt>
<trkpt lat="30.04339" lon="120.549353"></trkpt>
<trkpt lat="30.042344" lon="120.549731"></trkpt>
<trkpt lat="30.042279" lon="120.549774"></trkpt>
<trkpt lat="30.042279" lon="120.549774"></trkpt>
<trkpt lat="30.041016" lon="120.550234"></trkpt>
<trkpt lat="30.041016" lon="120.550234"></trkpt>
<trkpt lat="30.040625" lon="120.550386"></trkpt>
<trkpt lat="30.040417" lon="120.550551"></trkpt>
<trkpt lat="30.040417" lon="120.550551"></trkpt>
<trkpt lat="30.040347" lon="120.550577"></trkpt>
<trkpt lat="30.040347" lon="120.550577"></trkpt>
<trkpt lat="30.039488" lon="120.550734"></trkpt>
<trkpt lat="30.038576" lon="120.550838"></trkpt>
<trkpt lat="30.037995" lon="120.550885"></trkpt>
<trkpt lat="30.037548" lon="120.550885"></trkpt>
<trkpt lat="30.037548" lon="120.550885"></trkpt>
<trkpt lat="30.037292" lon="120.55089"></trkpt>
<trkpt lat="30.036623" lon="120.550868"></trkpt>
<trkpt lat="30.036593" lon="120.550868"></trkpt>
<trkpt lat="30.036593" lon="120.550868"></trkpt>
<trkpt lat="30.03648" lon="120.550864"></trkpt>
<trkpt lat="30.03648" lon="120.550864"></trkpt>
<trkpt lat="30.036398" lon="120.550851"></trkpt>
<trkpt lat="30.036398" lon="120.550851"></trkpt>
<trkpt lat="30.036298" lon="120.550842"></trkpt>
<trkpt lat="30.036293" lon="120.550838"></trkpt>
<trkpt lat="30.036259" lon="120.551072"></trkpt>
<trkpt lat="30.036254" lon="120.551072"></trkpt>
<trkpt lat="30.036063" lon="120.551168"></trkpt>
<trkpt lat="30.035382" lon="120.551029"></trkpt>
<trkpt lat="30.035048" lon="120.550851"></trkpt>
<trkpt lat="30.034596" lon="120.550786"></trkpt>
<trkpt lat="30.034596" lon="120.550786"></trkpt>
<trkpt lat="30.033898" lon="120.550738"></trkpt>
<trkpt lat="30.033898" lon="120.550738"></trkpt>
<trkpt lat="30.03339" lon="120.550738"></trkpt>
<trkpt lat="30.032773" lon="120.550799"></trkpt>
<trkpt lat="30.032773" lon="120.550799"></trkpt>
<trkpt lat="30.032509" lon="120.550838"></trkpt>
<trkpt lat="30.032509" lon="120.550838"></trkpt>
<trkpt lat="30.032461" lon="120.550846"></trkpt>
<trkpt lat="30.032461" lon="120.550846"></trkpt>
<trkpt lat="30.032148" lon="120.550907"></trkpt>
<trkpt lat="30.032148" lon="120.550907"></trkpt>
<trkpt lat="30.031706" lon="120.551011"></trkpt>
<trkpt lat="30.030603" lon="120.551319"></trkpt>
<trkpt lat="30.030365" lon="120.55148"></trkpt>
<trkpt lat="30.029544" lon="120.551706"></trkpt>
<trkpt lat="30.029436" lon="120.551762"></trkpt>
<trkpt lat="30.029345" lon="120.55184"></trkpt>
<trkpt lat="30.029266" lon="120.551944"></trkpt>
<trkpt lat="30.029262" lon="120.551944"></trkpt>
<trkpt lat="30.029214" lon="120.552075"></trkpt>
<trkpt lat="30.029188" lon="120.552183"></trkpt>
<trkpt lat="30.029184" lon="120.552365"></trkpt>
<trkpt lat="30.029206" lon="120.552613"></trkpt>
<trkpt lat="30.029162" lon="120.553003"></trkpt>
<trkpt lat="30.029128" lon="120.553138"></trkpt>
<trkpt lat="30.029128" lon="120.553138"></trkpt>
<trkpt lat="30.028689" lon="120.555304"></trkpt>
<trkpt lat="30.028598" lon="120.55546"></trkpt>
<trkpt lat="30.028598" lon="120.55546"></trkpt>
<trkpt lat="30.028394" lon="120.556372"></trkpt>
<trkpt lat="30.028229" lon="120.55694"></trkpt>
<trkpt lat="30.028108" lon="120.557261"></trkpt>
<trkpt lat="30.027977" lon="120.557582"></trkpt>
<trkpt lat="30.027413" lon="120.558707"></trkpt>
<trkpt lat="30.027413" lon="120.558707"></trkpt>
<trkpt lat="30.027231" lon="120.559067"></trkpt>
<trkpt lat="30.027231" lon="120.559067"></trkpt>
<trkpt lat="30.027005" lon="120.559514"></trkpt>
<trkpt lat="30.027005" lon="120.559514"></trkpt>
<trkpt lat="30.026966" lon="120.559653"></trkpt>
<trkpt lat="30.026727" lon="120.560139"></trkpt>
<trkpt lat="30.026727" lon="120.560139"></trkpt>
<trkpt lat="30.02648" lon="120.560651"></trkpt>
<trkpt lat="30.02648" lon="120.560651"></trkpt>
<trkpt lat="30.025885" lon="120.562005"></trkpt>
<trkpt lat="30.025638" lon="120.562504"></trkpt>
<trkpt lat="30.025629" lon="120.562513"></trkpt>
<trkpt lat="30.025009" lon="120.563555"></trkpt>
<trkpt lat="30.025009" lon="120.563555"></trkpt>
<trkpt lat="30.024918" lon="120.563715"></trkpt>
<trkpt lat="30.024918" lon="120.563715"></trkpt>
<trkpt lat="30.024779" lon="120.563963"></trkpt>
<trkpt lat="30.024761" lon="120.56398"></trkpt>
<trkpt lat="30.024761" lon="120.56398"></trkpt>
<trkpt lat="30.024718" lon="120.564063"></trkpt>
<trkpt lat="30.024718" lon="120.564063"></trkpt>
<trkpt lat="30.024661" lon="120.564175"></trkpt>
<trkpt lat="30.024661" lon="120.564175"></trkpt>
<trkpt lat="30.024614" lon="120.564275"></trkpt>
<trkpt lat="30.024614" lon="120.564275"></trkpt>
<trkpt lat="30.02444" lon="120.564614"></trkpt>
<trkpt lat="30.02444" lon="120.564614"></trkpt>
<trkpt lat="30.023876" lon="120.56579"></trkpt>
<trkpt lat="30.023828" lon="120.565859"></trkpt>
<trkpt lat="30.023828" lon="120.565859"></trkpt>
<trkpt lat="30.023785" lon="120.565933"></trkpt>
<trkpt lat="30.023733" lon="120.566081"></trkpt>
<trkpt lat="30.023733" lon="120.566081"></trkpt>
<trkpt lat="30.023568" lon="120.566671"></trkpt>
<trkpt lat="30.023568" lon="120.566671"></trkpt>
<trkpt lat="30.02349" lon="120.567057"></trkpt>
<trkpt lat="30.023238" lon="120.568876"></trkpt>
<trkpt lat="30.023203" lon="120.568993"></trkpt>
<trkpt lat="30.023203" lon="120.568993"></trkpt>
<trkpt lat="30.023203" lon="120.569071"></trkpt>
<trkpt lat="30.023199" lon="120.569071"></trkpt>
<trkpt lat="30.022869" lon="120.569019"></trkpt>
<trkpt lat="30.022869" lon="120.569019"></trkpt>
<trkpt lat="30.021549" lon="120.568785"></trkpt>
<trkpt lat="30.021549" lon="120.568785"></trkpt>
<trkpt lat="30.021458" lon="120.568767"></trkpt>
<trkpt lat="30.021458" lon="120.568767"></trkpt>
<trkpt lat="30.021133" lon="120.56872"></trkpt>
<trkpt lat="30.021133" lon="120.56872"></trkpt>
<trkpt lat="30.020525" lon="120.56862"></trkpt>
<trkpt lat="30.020525" lon="120.56862"></trkpt>
<trkpt lat="30.019983" lon="120.568568"></trkpt>
<trkpt lat="30.019983" lon="120.568568"></trkpt>
<trkpt lat="30.0198" lon="120.568563"></trkpt>
<trkpt lat="30.019475" lon="120.568572"></trkpt>
<trkpt lat="30.019128" lon="120.568615"></trkpt>
<trkpt lat="30.018889" lon="120.568655"></trkpt>
<trkpt lat="30.018077" lon="120.568859"></trkpt>
<trkpt lat="30.018077" lon="120.568859"></trkpt>
<trkpt lat="30.016146" lon="120.569375"></trkpt>
<trkpt lat="30.015959" lon="120.56941"></trkpt>
<trkpt lat="30.015642" lon="120.569423"></trkpt>
<trkpt lat="30.015451" lon="120.569423"></trkpt>
<trkpt lat="30.01523" lon="120.569392"></trkpt>
<trkpt lat="30.014918" lon="120.569314"></trkpt>
<trkpt lat="30.01474" lon="120.569262"></trkpt>
<trkpt lat="30.014648" lon="120.569219"></trkpt>
<trkpt lat="30.014609" lon="120.569197"></trkpt>
<trkpt lat="30.013997" lon="120.56885"></trkpt>
<trkpt lat="30.013993" lon="120.568845"></trkpt>
<trkpt lat="30.013937" lon="120.568971"></trkpt>
<trkpt lat="30.013937" lon="120.568971"></trkpt>
<trkpt lat="30.013824" lon="120.569188"></trkpt>
<trkpt lat="30.01329" lon="120.569957"></trkpt>
<trkpt lat="30.01329" lon="120.569957"></trkpt>
<trkpt lat="30.012995" lon="120.570382"></trkpt>
<trkpt lat="30.012739" lon="120.570872"></trkpt>
<trkpt lat="30.012739" lon="120.570872"></trkpt>
<trkpt lat="30.012691" lon="120.570964"></trkpt>
<trkpt lat="30.012691" lon="120.570964"></trkpt>
<trkpt lat="30.012405" lon="120.571515"></trkpt>
<trkpt lat="30.012405" lon="120.571515"></trkpt>
<trkpt lat="30.011914" lon="120.572448"></trkpt>
<trkpt lat="30.011914" lon="120.572448"></trkpt>
<trkpt lat="30.011463" lon="120.573307"></trkpt>
<trkpt lat="30.011463" lon="120.573307"></trkpt>
<trkpt lat="30.011202" lon="120.573802"></trkpt>
<trkpt lat="30.011198" lon="120.573802"></trkpt>
<trkpt lat="30.011111" lon="120.573906"></trkpt>
<trkpt lat="30.010838" lon="120.574384"></trkpt>
<trkpt lat="30.010838" lon="120.574384"></trkpt>
<trkpt lat="30.010039" lon="120.575803"></trkpt>
<trkpt lat="30.010039" lon="120.575803"></trkpt>
<trkpt lat="30.009336" lon="120.576953"></trkpt>
<trkpt lat="30.009123" lon="120.577331"></trkpt>
<trkpt lat="30.009123" lon="120.577331"></trkpt>
<trkpt lat="30.009019" lon="120.577483"></trkpt>
<trkpt lat="30.009019" lon="120.577483"></trkpt>
<trkpt lat="30.008437" lon="120.578429"></trkpt>
<trkpt lat="30.008325" lon="120.578585"></trkpt>
<trkpt lat="30.008325" lon="120.578585"></trkpt>
<trkpt lat="30.008268" lon="120.57865"></trkpt>
<trkpt lat="30.008186" lon="120.578793"></trkpt>
<trkpt lat="30.008038" lon="120.57911"></trkpt>
<trkpt lat="30.008038" lon="120.57911"></trkpt>
<trkpt lat="30.007609" lon="120.579952"></trkpt>
<trkpt lat="30.007609" lon="120.579952"></trkpt>
<trkpt lat="30.007049" lon="120.58072"></trkpt>
<trkpt lat="30.007049" lon="120.58072"></trkpt>
<trkpt lat="30.006645" lon="120.58138"></trkpt>
<trkpt lat="30.006497" lon="120.581745"></trkpt>
<trkpt lat="30.006493" lon="120.581745"></trkpt>
<trkpt lat="30.006133" lon="120.581636"></trkpt>
<trkpt lat="30.006133" lon="120.581636"></trkpt>
<trkpt lat="30.006076" lon="120.581615"></trkpt>
<trkpt lat="30.006076" lon="120.581615"></trkpt>
<trkpt lat="30.005629" lon="120.581476"></trkpt>
<trkpt lat="30.005425" lon="120.581428"></trkpt>
<trkpt lat="30.005425" lon="120.581428"></trkpt>
<trkpt lat="30.005191" lon="120.581385"></trkpt>
<trkpt lat="30.004787" lon="120.58135"></trkpt>
<trkpt lat="30.003859" lon="120.581311"></trkpt>
<trkpt lat="30.003859" lon="120.581311"></trkpt>
<trkpt lat="30.003811" lon="120.581311"></trkpt>
<trkpt lat="30.003811" lon="120.581311"></trkpt>
<trkpt lat="30.003776" lon="120.581311"></trkpt>
<trkpt lat="30.003776" lon="120.581311"></trkpt>
<trkpt lat="30.003663" lon="120.581306"></trkpt>
<trkpt lat="30.003273" lon="120.581289"></trkpt>
<trkpt lat="30.003273" lon="120.581289"></trkpt>
<trkpt lat="30.00309" lon="120.581285"></trkpt>
<trkpt lat="30.00309" lon="120.581285"></trkpt>
<trkpt lat="30.0026" lon="120.581267"></trkpt>
<trkpt lat="30.0026" lon="120.581267"></trkpt>
<trkpt lat="30.002409" lon="120.581263"></trkpt>
<trkpt lat="30.002409" lon="120.581263"></trkpt>
<trkpt lat="30.00184" lon="120.581207"></trkpt>
<trkpt lat="30.00184" lon="120.581207"></trkpt>
<trkpt lat="30.001788" lon="120.581202"></trkpt>
<trkpt lat="30.001788" lon="120.581202"></trkpt>
<trkpt lat="30.001402" lon="120.581163"></trkpt>
<trkpt lat="30.001402" lon="120.581163"></trkpt>
<trkpt lat="30.001189" lon="120.581146"></trkpt>
<trkpt lat="30.001189" lon="120.581146"></trkpt>
<trkpt lat="30.000312" lon="120.581063"></trkpt>
<trkpt lat="30.000312" lon="120.581063"></trkpt>
<trkpt lat="29.999149" lon="120.58102"></trkpt>
<trkpt lat="29.999149" lon="120.58102"></trkpt>
<trkpt lat="29.99895" lon="120.581011"></trkpt>
<trkpt lat="29.99895" lon="120.581011"></trkpt>
<trkpt lat="29.99849" lon="120.580959"></trkpt>
<trkpt lat="29.99849" lon="120.580959"></trkpt>
<trkpt lat="29.998212" lon="120.580946"></trkpt>
<trkpt lat="29.998212" lon="120.580946"></trkpt>
<trkpt lat="29.99786" lon="120.580933"></trkpt>
<trkpt lat="29.99786" lon="120.580933"></trkpt>
<trkpt lat="29.997439" lon="120.58092"></trkpt>
<trkpt lat="29.997439" lon="120.58092"></trkpt>
<trkpt lat="29.996606" lon="120.580885"></trkpt>
<trkpt lat="29.996606" lon="120.580885"></trkpt>
<trkpt lat="29.996549" lon="120.580885"></trkpt>
<trkpt lat="29.996549" lon="120.580885"></trkpt>
<trkpt lat="29.996042" lon="120.580855"></trkpt>
<trkpt lat="29.996042" lon="120.580855"></trkpt>
<trkpt lat="29.995495" lon="120.580816"></trkpt>
<trkpt lat="29.995495" lon="120.580816"></trkpt>
<trkpt lat="29.995161" lon="120.580794"></trkpt>
<trkpt lat="29.995161" lon="120.580794"></trkpt>
<trkpt lat="29.994232" lon="120.580742"></trkpt>
<trkpt lat="29.994232" lon="120.580742"></trkpt>
<trkpt lat="29.993954" lon="120.580716"></trkpt>
<trkpt lat="29.993954" lon="120.580716"></trkpt>
<trkpt lat="29.993355" lon="120.580686"></trkpt>
<trkpt lat="29.993351" lon="120.580681"></trkpt>
<trkpt lat="29.993346" lon="120.580716"></trkpt>
<trkpt lat="29.993346" lon="120.580716"></trkpt>
<trkpt lat="29.993273" lon="120.580972"></trkpt>
<trkpt lat="29.993273" lon="120.580972"></trkpt>
<trkpt lat="29.993016" lon="120.581467"></trkpt>
<trkpt lat="29.993016" lon="120.581467"></trkpt>
<trkpt lat="29.99273" lon="120.581997"></trkpt>
<trkpt lat="29.99273" lon="120.581997"></trkpt>
<trkpt lat="29.9927" lon="120.582066"></trkpt>
<trkpt lat="29.9927" lon="120.582066"></trkpt>
<trkpt lat="29.992678" lon="120.582114"></trkpt>
<trkpt lat="29.992556" lon="120.5824"></trkpt>
<trkpt lat="29.992556" lon="120.5824"></trkpt>
<trkpt lat="29.992522" lon="120.582474"></trkpt>
<trkpt lat="29.992522" lon="120.582474"></trkpt>
<trkpt lat="29.992183" lon="120.583333"></trkpt>
<trkpt lat="29.992183" lon="120.583333"></trkpt>
<trkpt lat="29.992114" lon="120.583498"></trkpt>
<trkpt lat="29.992114" lon="120.583498"></trkpt>
<trkpt lat="29.992014" lon="120.583811"></trkpt>
<trkpt lat="29.991988" lon="120.583971"></trkpt>
<trkpt lat="29.991988" lon="120.583971"></trkpt>
<trkpt lat="29.99197" lon="120.584115"></trkpt>
<trkpt lat="29.99197" lon="120.584115"></trkpt>
<trkpt lat="29.991923" lon="120.584679"></trkpt>
<trkpt lat="29.991923" lon="120.584679"></trkpt>
<trkpt lat="29.991888" lon="120.585126"></trkpt>
<trkpt lat="29.991884" lon="120.585126"></trkpt>
<trkpt lat="29.991944" lon="120.585135"></trkpt>
<trkpt lat="29.991944" lon="120.585135"></trkpt>
<trkpt lat="29.991997" lon="120.585148"></trkpt>
<trkpt lat="29.991997" lon="120.585148"></trkpt>
<trkpt lat="29.992044" lon="120.585152"></trkpt>
<trkpt lat="29.992044" lon="120.585152"></trkpt>
<trkpt lat="29.992261" lon="120.585191"></trkpt>
<trkpt lat="29.992261" lon="120.585191"></trkpt>
<trkpt lat="29.992266" lon="120.585135"></trkpt>
<trkpt lat="29.992266" lon="120.585135"></trkpt>
<trkpt lat="29.99227" lon="120.585074"></trkpt>
<trkpt lat="29.99227" lon="120.585074"></trkpt>
<trkpt lat="29.992283" lon="120.584974"></trkpt>
<trkpt lat="29.992283" lon="120.584974"></trkpt>
<trkpt lat="29.992296" lon="120.584822"></trkpt>
<trkpt lat="29.992296" lon="120.584818"></trkpt>
<trkpt lat="29.992674" lon="120.584887"></trkpt>
<trkpt lat="29.992999" lon="120.584948"></trkpt>
<trkpt lat="29.992999" lon="120.584948"></trkpt>
<trkpt lat="29.993168" lon="120.584987"></trkpt>
<trkpt lat="29.993168" lon="120.584987"></trkpt>
<trkpt lat="29.993199" lon="120.584787"></trkpt>
<trkpt lat="29.993199" lon="120.584783"></trkpt>
<trkpt lat="29.993073" lon="120.584774"></trkpt>
<trkpt lat="29.993069" lon="120.58477"></trkpt>
<trkpt lat="29.993108" lon="120.584701"></trkpt>
<trkpt lat="29.993138" lon="120.584674"></trkpt>
<trkpt lat="29.993216" lon="120.584661"></trkpt>
<trkpt lat="29.993216" lon="120.584661"></trkpt>
<trkpt lat="29.993216" lon="120.584657"></trkpt>
<trkpt lat="29.993216" lon="120.584657"></trkpt>
<trkpt lat="29.993142" lon="120.58467"></trkpt>
<trkpt lat="29.993112" lon="120.584696"></trkpt>
<trkpt lat="29.993073" lon="120.58477"></trkpt>
<trkpt lat="29.993069" lon="120.58477"></trkpt>
<trkpt lat="29.993199" lon="120.584783"></trkpt>
<trkpt lat="29.993199" lon="120.584783"></trkpt>
<trkpt lat="29.993173" lon="120.584987"></trkpt>
<trkpt lat="29.993173" lon="120.584987"></trkpt>
<trkpt lat="29.993142" lon="120.5852"></trkpt>
<trkpt lat="29.992982" lon="120.585187"></trkpt>
<trkpt lat="29.992977" lon="120.585182"></trkpt>
<trkpt lat="29.992973" lon="120.58533"></trkpt>
<trkpt lat="29.992969" lon="120.58533"></trkpt>
<trkpt lat="29.993021" lon="120.585347"></trkpt>
<trkpt lat="29.993021" lon="120.585486"></trkpt>
<trkpt lat="29.993021" lon="120.585486"></trkpt>
<trkpt lat="29.993016" lon="120.585569"></trkpt>
<trkpt lat="29.993012" lon="120.585569"></trkpt>
<trkpt lat="29.992769" lon="120.585543"></trkpt>
<trkpt lat="29.992769" lon="120.585543"></trkpt>
<trkpt lat="29.992678" lon="120.585534"></trkpt>
<trkpt lat="29.992569" lon="120.585521"></trkpt>
<trkpt lat="29.992561" lon="120.585586"></trkpt>
<trkpt lat="29.992561" lon="120.585586"></trkpt>
<trkpt lat="29.992548" lon="120.585651"></trkpt>
<trkpt lat="29.992543" lon="120.585651"></trkpt>
<trkpt lat="29.99217" lon="120.58559"></trkpt>
<trkpt lat="29.99217" lon="120.58559"></trkpt>
<trkpt lat="29.991866" lon="120.585534"></trkpt>
<trkpt lat="29.991862" lon="120.58553"></trkpt>
<trkpt lat="29.991875" lon="120.585286"></trkpt>
<trkpt lat="29.991875" lon="120.585286"></trkpt>
<trkpt lat="29.991884" lon="120.58513"></trkpt>
<trkpt lat="29.991884" lon="120.58513"></trkpt>
<trkpt lat="29.991918" lon="120.584683"></trkpt>
<trkpt lat="29.991918" lon="120.584683"></trkpt>
<trkpt lat="29.991966" lon="120.584119"></trkpt>
<trkpt lat="29.991966" lon="120.584119"></trkpt>
<trkpt lat="29.991984" lon="120.583976"></trkpt>
<trkpt lat="29.991984" lon="120.583976"></trkpt>
<trkpt lat="29.99201" lon="120.583815"></trkpt>
<trkpt lat="29.992109" lon="120.583503"></trkpt>
<trkpt lat="29.992109" lon="120.583503"></trkpt>
<trkpt lat="29.992179" lon="120.583338"></trkpt>
<trkpt lat="29.992179" lon="120.583338"></trkpt>
<trkpt lat="29.992517" lon="120.582478"></trkpt>
<trkpt lat="29.992517" lon="120.582478"></trkpt>
<trkpt lat="29.992552" lon="120.582405"></trkpt>
<trkpt lat="29.992552" lon="120.582405"></trkpt>
<trkpt lat="29.992674" lon="120.582118"></trkpt>
<trkpt lat="29.992695" lon="120.58207"></trkpt>
<trkpt lat="29.992695" lon="120.58207"></trkpt>
<trkpt lat="29.992726" lon="120.582001"></trkpt>
<trkpt lat="29.992726" lon="120.582001"></trkpt>
<trkpt lat="29.993012" lon="120.581471"></trkpt>
<trkpt lat="29.993012" lon="120.581471"></trkpt>
<trkpt lat="29.993268" lon="120.580977"></trkpt>
<trkpt lat="29.993268" lon="120.580977"></trkpt>
<trkpt lat="29.993342" lon="120.58072"></trkpt>
<trkpt lat="29.993342" lon="120.58072"></trkpt>
<trkpt lat="29.993351" lon="120.580686"></trkpt>
<trkpt lat="29.993351" lon="120.580681"></trkpt>
<trkpt lat="29.99395" lon="120.580712"></trkpt>
<trkpt lat="29.99395" lon="120.580712"></trkpt>
<trkpt lat="29.994227" lon="120.580738"></trkpt>
<trkpt lat="29.994227" lon="120.580738"></trkpt>
<trkpt lat="29.995156" lon="120.58079"></trkpt>
<trkpt lat="29.995156" lon="120.58079"></trkpt>
<trkpt lat="29.99549" lon="120.580812"></trkpt>
<trkpt lat="29.99549" lon="120.580812"></trkpt>
<trkpt lat="29.996037" lon="120.580851"></trkpt>
<trkpt lat="29.996037" lon="120.580851"></trkpt>
<trkpt lat="29.996545" lon="120.580881"></trkpt>
<trkpt lat="29.996545" lon="120.580881"></trkpt>
<trkpt lat="29.996606" lon="120.579366"></trkpt>
<trkpt lat="29.996606" lon="120.579366"></trkpt>
<trkpt lat="29.996615" lon="120.578898"></trkpt>
<trkpt lat="29.996615" lon="120.578898"></trkpt>
<trkpt lat="29.996623" lon="120.578763"></trkpt>
<trkpt lat="29.996623" lon="120.578763"></trkpt>
<trkpt lat="29.996667" lon="120.577678"></trkpt>
<trkpt lat="29.996667" lon="120.577674"></trkpt>
<trkpt lat="29.996719" lon="120.577678"></trkpt>
<trkpt lat="29.996719" lon="120.577678"></trkpt>
<trkpt lat="29.997361" lon="120.577648"></trkpt>
<trkpt lat="29.997361" lon="120.577643"></trkpt>
<trkpt lat="29.997387" lon="120.57796"></trkpt>
<trkpt lat="29.997387" lon="120.57796"></trkpt>
<trkpt lat="29.997365" lon="120.577648"></trkpt>
<trkpt lat="29.997361" lon="120.577643"></trkpt>
<trkpt lat="29.996723" lon="120.577678"></trkpt>
<trkpt lat="29.996719" lon="120.577678"></trkpt>
<trkpt lat="29.996688" lon="120.578885"></trkpt>
<trkpt lat="29.996688" lon="120.578885"></trkpt>
<trkpt lat="29.996667" lon="120.579362"></trkpt>
<trkpt lat="29.996667" lon="120.579362"></trkpt>
<trkpt lat="29.996649" lon="120.579757"></trkpt>
<trkpt lat="29.996649" lon="120.579757"></trkpt>
<trkpt lat="29.996606" lon="120.580881"></trkpt>
<trkpt lat="29.996606" lon="120.580881"></trkpt>
<trkpt lat="29.996606" lon="120.580942"></trkpt>
<trkpt lat="29.996606" lon="120.580942"></trkpt>
<trkpt lat="29.996597" lon="120.581194"></trkpt>
<trkpt lat="29.996597" lon="120.581194"></trkpt>
<trkpt lat="29.996593" lon="120.581719"></trkpt>
<trkpt lat="29.996593" lon="120.581719"></trkpt>
<trkpt lat="29.996584" lon="120.582153"></trkpt>
<trkpt lat="29.996584" lon="120.582153"></trkpt>
<trkpt lat="29.99658" lon="120.582517"></trkpt>
<trkpt lat="29.99658" lon="120.582517"></trkpt>
<trkpt lat="29.99658" lon="120.582791"></trkpt>
<trkpt lat="29.99658" lon="120.582791"></trkpt>
<trkpt lat="29.996567" lon="120.583837"></trkpt>
<trkpt lat="29.996567" lon="120.583837"></trkpt>
<trkpt lat="29.996567" lon="120.584996"></trkpt>
<trkpt lat="29.996567" lon="120.584996"></trkpt>
<trkpt lat="29.996567" lon="120.58536"></trkpt>
<trkpt lat="29.996567" lon="120.58536"></trkpt>
<trkpt lat="29.996562" lon="120.585764"></trkpt>
<trkpt lat="29.996536" lon="120.585938"></trkpt>
<trkpt lat="29.996536" lon="120.585946"></trkpt>
<trkpt lat="29.996536" lon="120.585946"></trkpt>
<trkpt lat="29.996432" lon="120.586406"></trkpt>
<trkpt lat="29.996432" lon="120.586406"></trkpt>
<trkpt lat="29.996389" lon="120.586602"></trkpt>
<trkpt lat="29.996389" lon="120.586602"></trkpt>
<trkpt lat="29.996233" lon="120.587227"></trkpt>
<trkpt lat="29.996233" lon="120.587227"></trkpt>
<trkpt lat="29.99622" lon="120.587309"></trkpt>
<trkpt lat="29.99622" lon="120.587309"></trkpt>
<trkpt lat="29.996202" lon="120.587387"></trkpt>
<trkpt lat="29.996202" lon="120.587387"></trkpt>
<trkpt lat="29.996063" lon="120.588008"></trkpt>
<trkpt lat="29.996063" lon="120.588008"></trkpt>
<trkpt lat="29.995977" lon="120.58852"></trkpt>
<trkpt lat="29.995977" lon="120.58852"></trkpt>
<trkpt lat="29.995929" lon="120.58885"></trkpt>
<trkpt lat="29.995929" lon="120.58885"></trkpt>
<trkpt lat="29.995885" lon="120.589297"></trkpt>
<trkpt lat="29.995885" lon="120.589297"></trkpt>
<trkpt lat="29.99582" lon="120.589948"></trkpt>
<trkpt lat="29.99582" lon="120.589948"></trkpt>
<trkpt lat="29.995777" lon="120.590421"></trkpt>
<trkpt lat="29.995777" lon="120.590421"></trkpt>
<trkpt lat="29.995755" lon="120.590799"></trkpt>
<trkpt lat="29.995755" lon="120.590799"></trkpt>
<trkpt lat="29.995707" lon="120.591771"></trkpt>
<trkpt lat="29.995707" lon="120.591771"></trkpt>
<trkpt lat="29.995694" lon="120.592101"></trkpt>
<trkpt lat="29.995694" lon="120.592101"></trkpt>
<trkpt lat="29.995642" lon="120.593247"></trkpt>
<trkpt lat="29.995642" lon="120.593247"></trkpt>
<trkpt lat="29.995634" lon="120.593585"></trkpt>
<trkpt lat="29.995634" lon="120.593585"></trkpt>
<trkpt lat="29.995616" lon="120.593958"></trkpt>
<trkpt lat="29.995612" lon="120.593958"></trkpt>
<trkpt lat="29.996332" lon="120.59408"></trkpt>
<trkpt lat="29.996332" lon="120.59408"></trkpt>
<trkpt lat="29.996727" lon="120.594149"></trkpt>
<trkpt lat="29.996727" lon="120.594149"></trkpt>
<trkpt lat="29.996832" lon="120.594171"></trkpt>
<trkpt lat="29.996832" lon="120.594171"></trkpt>
<trkpt lat="29.997418" lon="120.594253"></trkpt>
<trkpt lat="29.997418" lon="120.594253"></trkpt>
<trkpt lat="29.997626" lon="120.594288"></trkpt>
<trkpt lat="29.997626" lon="120.594288"></trkpt>
<trkpt lat="29.998168" lon="120.594384"></trkpt>
<trkpt lat="29.998168" lon="120.594384"></trkpt>
<trkpt lat="29.998885" lon="120.594592"></trkpt>
<trkpt lat="29.998885" lon="120.594592"></trkpt>
<trkpt lat="29.999106" lon="120.594657"></trkpt>
<trkpt lat="29.999106" lon="120.594657"></trkpt>
<trkpt lat="29.999058" lon="120.594844"></trkpt>
<trkpt lat="29.998945" lon="120.595525"></trkpt>
<trkpt lat="29.998945" lon="120.595525"></trkpt>
<trkpt lat="29.998832" lon="120.596289"></trkpt>
<trkpt lat="29.998832" lon="120.596289"></trkpt>
<trkpt lat="29.998789" lon="120.596615"></trkpt>
<trkpt lat="29.998789" lon="120.596615"></trkpt>
<trkpt lat="29.998776" lon="120.596693"></trkpt>
<trkpt lat="29.998776" lon="120.596693"></trkpt>
<trkpt lat="29.99872" lon="120.59707"></trkpt>
<trkpt lat="29.998685" lon="120.597609"></trkpt>
<trkpt lat="29.998694" lon="120.597912"></trkpt>
<trkpt lat="29.998741" lon="120.598346"></trkpt>
<trkpt lat="29.998789" lon="120.598637"></trkpt>
<trkpt lat="29.998789" lon="120.598637"></trkpt>
<trkpt lat="29.99885" lon="120.599002"></trkpt>
<trkpt lat="29.99885" lon="120.599002"></trkpt>
<trkpt lat="29.998863" lon="120.599115"></trkpt>
<trkpt lat="29.998863" lon="120.599115"></trkpt>
<trkpt lat="29.998928" lon="120.599523"></trkpt>
<trkpt lat="29.998928" lon="120.599523"></trkpt>
<trkpt lat="29.998976" lon="120.599831"></trkpt>
<trkpt lat="29.999015" lon="120.600243"></trkpt>
<trkpt lat="29.999015" lon="120.600243"></trkpt>
<trkpt lat="29.99911" lon="120.600786"></trkpt>
<trkpt lat="29.99911" lon="120.600786"></trkpt>
<trkpt lat="29.999128" lon="120.600885"></trkpt>
<trkpt lat="29.999128" lon="120.600885"></trkpt>
<trkpt lat="29.999201" lon="120.601389"></trkpt>
<trkpt lat="29.999201" lon="120.601389"></trkpt>
<trkpt lat="29.999227" lon="120.601545"></trkpt>
<trkpt lat="29.999227" lon="120.601545"></trkpt>
<trkpt lat="29.99924" lon="120.601753"></trkpt>
<trkpt lat="29.999336" lon="120.602096"></trkpt>
<trkpt lat="29.999384" lon="120.602335"></trkpt>
<trkpt lat="29.999384" lon="120.602335"></trkpt>
<trkpt lat="29.999497" lon="120.60299"></trkpt>
<trkpt lat="29.999497" lon="120.60299"></trkpt>
<trkpt lat="29.999622" lon="120.603811"></trkpt>
<trkpt lat="29.999622" lon="120.603811"></trkpt>
<trkpt lat="29.999931" lon="120.605764"></trkpt>
<trkpt lat="29.999931" lon="120.605764"></trkpt>
<trkpt lat="30.000269" lon="120.607908"></trkpt>
<trkpt lat="30.000464" lon="120.609132"></trkpt>
<trkpt lat="30.000464" lon="120.609132"></trkpt>
<trkpt lat="30.000477" lon="120.609245"></trkpt>
<trkpt lat="30.000477" lon="120.609245"></trkpt>
<trkpt lat="30.000586" lon="120.609805"></trkpt>
<trkpt lat="30.000647" lon="120.610208"></trkpt>
<trkpt lat="30.000647" lon="120.610495"></trkpt>
<trkpt lat="30.00066" lon="120.61059"></trkpt>
<trkpt lat="30.00066" lon="120.61059"></trkpt>
<trkpt lat="30.000751" lon="120.610938"></trkpt>
<trkpt lat="30.000942" lon="120.612049"></trkpt>
<trkpt lat="30.000942" lon="120.612049"></trkpt>
<trkpt lat="30.00102" lon="120.612543"></trkpt>
<trkpt lat="30.00102" lon="120.612543"></trkpt>
<trkpt lat="30.001224" lon="120.61385"></trkpt>
<trkpt lat="30.001224" lon="120.61385"></trkpt>
<trkpt lat="30.001406" lon="120.614974"></trkpt>
<trkpt lat="30.001406" lon="120.614974"></trkpt>
<trkpt lat="30.001719" lon="120.616918"></trkpt>
<trkpt lat="30.001736" lon="120.617075"></trkpt>
<trkpt lat="30.001736" lon="120.617075"></trkpt>
<trkpt lat="30.001749" lon="120.617292"></trkpt>
<trkpt lat="30.001927" lon="120.618086"></trkpt>
<trkpt lat="30.001927" lon="120.618086"></trkpt>
<trkpt lat="30.001949" lon="120.618181"></trkpt>
<trkpt lat="30.001949" lon="120.618181"></trkpt>
<trkpt lat="30.002023" lon="120.618563"></trkpt>
<trkpt lat="30.002066" lon="120.619002"></trkpt>
<trkpt lat="30.002066" lon="120.619002"></trkpt>
<trkpt lat="30.002044" lon="120.619297"></trkpt>
<trkpt lat="30.002044" lon="120.619505"></trkpt>
<trkpt lat="30.002044" lon="120.619505"></trkpt>
<trkpt lat="30.002057" lon="120.619905"></trkpt>
<trkpt lat="30.002131" lon="120.620169"></trkpt>
<trkpt lat="30.002131" lon="120.620169"></trkpt>
<trkpt lat="30.002135" lon="120.620885"></trkpt>
<trkpt lat="30.002135" lon="120.620885"></trkpt>
<trkpt lat="30.00214" lon="120.621293"></trkpt>
<trkpt lat="30.00214" lon="120.621293"></trkpt>
<trkpt lat="30.002157" lon="120.621914"></trkpt>
<trkpt lat="30.002157" lon="120.621914"></trkpt>
<trkpt lat="30.002157" lon="120.622396"></trkpt>
<trkpt lat="30.002157" lon="120.622396"></trkpt>
<trkpt lat="30.002118" lon="120.623164"></trkpt>
<trkpt lat="30.002127" lon="120.623533"></trkpt>
<trkpt lat="30.002127" lon="120.623533"></trkpt>
<trkpt lat="30.002118" lon="120.623976"></trkpt>
<trkpt lat="30.002118" lon="120.623976"></trkpt>
<trkpt lat="30.002114" lon="120.624727"></trkpt>
<trkpt lat="30.002114" lon="120.624727"></trkpt>
<trkpt lat="30.002114" lon="120.625156"></trkpt>
<trkpt lat="30.002114" lon="120.625156"></trkpt>
<trkpt lat="30.002122" lon="120.625395"></trkpt>
<trkpt lat="30.002179" lon="120.625647"></trkpt>
<trkpt lat="30.002179" lon="120.625647"></trkpt>
<trkpt lat="30.002179" lon="120.625868"></trkpt>
<trkpt lat="30.002183" lon="120.626089"></trkpt>
<trkpt lat="30.002183" lon="120.626089"></trkpt>
<trkpt lat="30.002183" lon="120.626237"></trkpt>
<trkpt lat="30.002179" lon="120.626385"></trkpt>
<trkpt lat="30.002179" lon="120.626385"></trkpt>
<trkpt lat="30.002135" lon="120.62658"></trkpt>
<trkpt lat="30.002135" lon="120.62658"></trkpt>
<trkpt lat="30.002135" lon="120.627431"></trkpt>
<trkpt lat="30.002135" lon="120.627431"></trkpt>
<trkpt lat="30.002135" lon="120.627591"></trkpt>
<trkpt lat="30.002135" lon="120.627591"></trkpt>
<trkpt lat="30.002135" lon="120.628134"></trkpt>
<trkpt lat="30.002135" lon="120.628134"></trkpt>
<trkpt lat="30.002127" lon="120.629076"></trkpt>
<trkpt lat="30.002127" lon="120.629076"></trkpt>
<trkpt lat="30.002127" lon="120.629145"></trkpt>
<trkpt lat="30.002122" lon="120.629145"></trkpt>
<trkpt lat="30.00204" lon="120.629145"></trkpt>
<trkpt lat="30.00204" lon="120.629145"></trkpt>
<trkpt lat="30.001949" lon="120.629145"></trkpt>
<trkpt lat="30.001944" lon="120.629145"></trkpt>
<trkpt lat="30.001944" lon="120.62908"></trkpt>
<trkpt lat="30.001944" lon="120.62908"></trkpt>
<trkpt lat="30.001944" lon="120.629019"></trkpt>
<trkpt lat="30.001944" lon="120.629019"></trkpt>
<trkpt lat="30.001953" lon="120.628911"></trkpt>
<trkpt lat="30.001953" lon="120.628906"></trkpt>
<trkpt lat="30.001836" lon="120.628867"></trkpt>
<trkpt lat="30.001701" lon="120.628837"></trkpt>
<trkpt lat="30.001701" lon="120.628837"></trkpt>
<trkpt lat="30.001697" lon="120.628837"></trkpt>
<trkpt lat="30.001528" lon="120.628919"></trkpt>
<trkpt lat="30.001389" lon="120.629015"></trkpt>
<trkpt lat="30.001345" lon="120.629076"></trkpt>
<trkpt lat="30.001345" lon="120.629076"></trkpt>
<trkpt lat="30.001324" lon="120.629106"></trkpt>
<trkpt lat="30.001267" lon="120.629249"></trkpt>
<trkpt lat="30.001185" lon="120.62934"></trkpt>
<trkpt lat="30.001063" lon="120.629453"></trkpt>
<trkpt lat="30.001059" lon="120.629453"></trkpt>
<trkpt lat="30.000964" lon="120.629553"></trkpt>
<trkpt lat="30.000959" lon="120.629553"></trkpt>
<trkpt lat="30.000894" lon="120.629627"></trkpt>
<trkpt lat="30.000742" lon="120.62974"></trkpt>
<trkpt lat="30.000421" lon="120.629718"></trkpt>
<trkpt lat="30.000421" lon="120.629718"></trkpt>
<trkpt lat="30.000369" lon="120.629648"></trkpt>
<trkpt lat="30.000161" lon="120.629449"></trkpt>
<trkpt lat="29.999922" lon="120.629427"></trkpt>
<trkpt lat="29.999918" lon="120.629423"></trkpt>
<trkpt lat="29.999714" lon="120.629423"></trkpt>
<trkpt lat="29.999648" lon="120.62947"></trkpt>
<trkpt lat="29.999644" lon="120.62947"></trkpt>
<trkpt lat="29.99957" lon="120.63013"></trkpt>
<trkpt lat="29.999553" lon="120.6302"></trkpt>
<trkpt lat="29.999553" lon="120.6302"></trkpt>
<trkpt lat="29.999444" lon="120.630799"></trkpt>
<trkpt lat="29.99944" lon="120.630799"></trkpt>
<trkpt lat="29.999379" lon="120.63082"></trkpt>
<trkpt lat="29.999379" lon="120.63082"></trkpt>
<trkpt lat="29.999201" lon="120.630868"></trkpt>
<trkpt lat="29.999197" lon="120.630868"></trkpt>
<trkpt lat="29.999041" lon="120.631541"></trkpt>
<trkpt lat="29.999036" lon="120.631541"></trkpt>
<trkpt lat="29.999032" lon="120.631519"></trkpt>
<trkpt lat="29.99895" lon="120.631536"></trkpt>
<trkpt lat="29.99895" lon="120.631536"></trkpt>
<trkpt lat="29.99885" lon="120.631563"></trkpt>
<trkpt lat="29.998845" lon="120.631563"></trkpt>
<trkpt lat="29.998793" lon="120.631671"></trkpt>
<trkpt lat="29.998793" lon="120.631671"></trkpt>
<trkpt lat="29.998798" lon="120.631793"></trkpt>
<trkpt lat="29.99878" lon="120.631884"></trkpt>
<trkpt lat="29.998737" lon="120.631931"></trkpt>
<trkpt lat="29.998663" lon="120.631914"></trkpt>
<trkpt lat="29.998581" lon="120.631849"></trkpt>
<trkpt lat="29.998576" lon="120.631845"></trkpt>
<trkpt lat="29.998659" lon="120.63191"></trkpt>
<trkpt lat="29.998733" lon="120.631931"></trkpt>
<trkpt lat="29.998776" lon="120.631888"></trkpt>
<trkpt lat="29.998798" lon="120.631797"></trkpt>
<trkpt lat="29.998793" lon="120.631675"></trkpt>
<trkpt lat="29.998793" lon="120.631675"></trkpt>
<trkpt lat="29.998845" lon="120.631567"></trkpt>
<trkpt lat="29.998845" lon="120.631563"></trkpt>
<trkpt lat="29.998945" lon="120.631541"></trkpt>
<trkpt lat="29.998945" lon="120.631541"></trkpt>
<trkpt lat="29.999028" lon="120.631519"></trkpt>
<trkpt lat="29.999036" lon="120.631541"></trkpt>
<trkpt lat="29.999036" lon="120.631541"></trkpt>
<trkpt lat="29.999197" lon="120.630872"></trkpt>
<trkpt lat="29.999197" lon="120.630868"></trkpt>
<trkpt lat="29.999375" lon="120.630825"></trkpt>
<trkpt lat="29.999375" lon="120.630825"></trkpt>
<trkpt lat="29.99944" lon="120.630803"></trkpt>
<trkpt lat="29.99944" lon="120.630799"></trkpt>
<trkpt lat="29.999549" lon="120.630204"></trkpt>
<trkpt lat="29.999549" lon="120.630204"></trkpt>
<trkpt lat="29.999566" lon="120.630135"></trkpt>
<trkpt lat="29.999644" lon="120.629475"></trkpt>
<trkpt lat="29.999644" lon="120.62947"></trkpt>
<trkpt lat="29.999709" lon="120.629427"></trkpt>
<trkpt lat="29.999918" lon="120.629427"></trkpt>
<trkpt lat="29.999918" lon="120.629423"></trkpt>
<trkpt lat="30.000156" lon="120.629444"></trkpt>
<trkpt lat="30.000365" lon="120.629644"></trkpt>
<trkpt lat="30.000417" lon="120.629714"></trkpt>
<trkpt lat="30.000417" lon="120.629714"></trkpt>
<trkpt lat="30.000738" lon="120.62974"></trkpt>
<trkpt lat="30.00089" lon="120.629631"></trkpt>
<trkpt lat="30.000959" lon="120.629557"></trkpt>
<trkpt lat="30.000959" lon="120.629553"></trkpt>
<trkpt lat="30.001059" lon="120.629457"></trkpt>
<trkpt lat="30.001059" lon="120.629453"></trkpt>
<trkpt lat="30.001181" lon="120.62934"></trkpt>
<trkpt lat="30.001263" lon="120.629253"></trkpt>
<trkpt lat="30.001319" lon="120.62911"></trkpt>
<trkpt lat="30.001341" lon="120.62908"></trkpt>
<trkpt lat="30.001341" lon="120.62908"></trkpt>
<trkpt lat="30.001385" lon="120.629019"></trkpt>
<trkpt lat="30.001528" lon="120.628924"></trkpt>
<trkpt lat="30.001697" lon="120.628841"></trkpt>
<trkpt lat="30.001697" lon="120.628841"></trkpt>
<trkpt lat="30.001697" lon="120.628832"></trkpt>
<trkpt lat="30.001832" lon="120.628863"></trkpt>
<trkpt lat="30.001953" lon="120.628906"></trkpt>
<trkpt lat="30.001953" lon="120.628906"></trkpt>
<trkpt lat="30.001949" lon="120.629015"></trkpt>
<trkpt lat="30.001949" lon="120.629015"></trkpt>
<trkpt lat="30.001949" lon="120.629076"></trkpt>
<trkpt lat="30.001949" lon="120.629076"></trkpt>
<trkpt lat="30.001949" lon="120.629145"></trkpt>
<trkpt lat="30.001944" lon="120.629145"></trkpt>
<trkpt lat="30.002036" lon="120.629145"></trkpt>
<trkpt lat="30.002036" lon="120.629145"></trkpt>
<trkpt lat="30.002122" lon="120.629145"></trkpt>
<trkpt lat="30.002122" lon="120.629145"></trkpt>
<trkpt lat="30.002122" lon="120.62908"></trkpt>
<trkpt lat="30.002122" lon="120.62908"></trkpt>
<trkpt lat="30.002131" lon="120.628138"></trkpt>
<trkpt lat="30.002131" lon="120.628138"></trkpt>
<trkpt lat="30.002131" lon="120.627595"></trkpt>
<trkpt lat="30.002131" lon="120.627595"></trkpt>
<trkpt lat="30.002131" lon="120.627435"></trkpt>
<trkpt lat="30.002131" lon="120.627435"></trkpt>
<trkpt lat="30.002131" lon="120.626584"></trkpt>
<trkpt lat="30.002131" lon="120.626584"></trkpt>
<trkpt lat="30.002174" lon="120.626389"></trkpt>
<trkpt lat="30.002174" lon="120.626389"></trkpt>
<trkpt lat="30.002179" lon="120.626241"></trkpt>
<trkpt lat="30.002183" lon="120.626094"></trkpt>
<trkpt lat="30.002183" lon="120.626094"></trkpt>
<trkpt lat="30.002183" lon="120.625872"></trkpt>
<trkpt lat="30.002183" lon="120.625651"></trkpt>
<trkpt lat="30.002183" lon="120.625651"></trkpt>
<trkpt lat="30.002127" lon="120.625399"></trkpt>
<trkpt lat="30.002118" lon="120.625161"></trkpt>
<trkpt lat="30.002118" lon="120.625161"></trkpt>
<trkpt lat="30.002114" lon="120.624731"></trkpt>
<trkpt lat="30.002114" lon="120.624731"></trkpt>
<trkpt lat="30.002114" lon="120.62398"></trkpt>
<trkpt lat="30.002114" lon="120.62398"></trkpt>
<trkpt lat="30.002127" lon="120.623537"></trkpt>
<trkpt lat="30.002127" lon="120.623537"></trkpt>
<trkpt lat="30.002118" lon="120.623168"></trkpt>
<trkpt lat="30.002157" lon="120.6224"></trkpt>
<trkpt lat="30.002157" lon="120.6224"></trkpt>
<trkpt lat="30.002157" lon="120.621918"></trkpt>
<trkpt lat="30.002157" lon="120.621918"></trkpt>
<trkpt lat="30.002144" lon="120.621298"></trkpt>
<trkpt lat="30.002144" lon="120.621298"></trkpt>
<trkpt lat="30.00214" lon="120.62089"></trkpt>
<trkpt lat="30.00214" lon="120.62089"></trkpt>
<trkpt lat="30.002135" lon="120.620174"></trkpt>
<trkpt lat="30.002135" lon="120.620174"></trkpt>
<trkpt lat="30.002062" lon="120.619909"></trkpt>
<trkpt lat="30.002044" lon="120.61951"></trkpt>
<trkpt lat="30.002044" lon="120.61951"></trkpt>
<trkpt lat="30.002044" lon="120.619301"></trkpt>
<trkpt lat="30.002066" lon="120.619006"></trkpt>
<trkpt lat="30.002066" lon="120.619006"></trkpt>
<trkpt lat="30.002027" lon="120.618568"></trkpt>
<trkpt lat="30.001953" lon="120.618186"></trkpt>
<trkpt lat="30.001953" lon="120.618186"></trkpt>
<trkpt lat="30.001931" lon="120.61809"></trkpt>
<trkpt lat="30.001931" lon="120.61809"></trkpt>
<trkpt lat="30.001753" lon="120.617296"></trkpt>
<trkpt lat="30.001736" lon="120.617079"></trkpt>
<trkpt lat="30.001736" lon="120.617079"></trkpt>
<trkpt lat="30.001723" lon="120.616923"></trkpt>
<trkpt lat="30.001411" lon="120.614978"></trkpt>
<trkpt lat="30.001411" lon="120.614978"></trkpt>
<trkpt lat="30.001228" lon="120.613854"></trkpt>
<trkpt lat="30.001228" lon="120.613854"></trkpt>
<trkpt lat="30.001024" lon="120.612548"></trkpt>
<trkpt lat="30.001024" lon="120.612548"></trkpt>
<trkpt lat="30.000946" lon="120.612053"></trkpt>
<trkpt lat="30.000946" lon="120.612053"></trkpt>
<trkpt lat="30.000755" lon="120.610942"></trkpt>
<trkpt lat="30.000664" lon="120.610595"></trkpt>
<trkpt lat="30.000664" lon="120.610595"></trkpt>
<trkpt lat="30.000651" lon="120.610499"></trkpt>
<trkpt lat="30.000651" lon="120.610213"></trkpt>
<trkpt lat="30.00059" lon="120.609809"></trkpt>
<trkpt lat="30.000482" lon="120.609249"></trkpt>
<trkpt lat="30.000482" lon="120.609249"></trkpt>
<trkpt lat="30.000469" lon="120.609136"></trkpt>
<trkpt lat="30.000469" lon="120.609136"></trkpt>
<trkpt lat="30.000273" lon="120.607912"></trkpt>
<trkpt lat="29.999935" lon="120.605768"></trkpt>
<trkpt lat="29.999935" lon="120.605768"></trkpt>
<trkpt lat="29.999627" lon="120.603815"></trkpt>
<trkpt lat="29.999627" lon="120.603815"></trkpt>
<trkpt lat="29.999501" lon="120.602995"></trkpt>
<trkpt lat="29.999501" lon="120.602995"></trkpt>
<trkpt lat="29.999388" lon="120.602339"></trkpt>
<trkpt lat="29.999388" lon="120.602339"></trkpt>
<trkpt lat="29.99934" lon="120.602101"></trkpt>
<trkpt lat="29.999245" lon="120.601758"></trkpt>
<trkpt lat="29.999232" lon="120.601549"></trkpt>
<trkpt lat="29.999232" lon="120.601549"></trkpt>
<trkpt lat="29.999206" lon="120.601393"></trkpt>
<trkpt lat="29.999206" lon="120.601393"></trkpt>
<trkpt lat="29.999132" lon="120.60089"></trkpt>
<trkpt lat="29.999132" lon="120.60089"></trkpt>
<trkpt lat="29.999115" lon="120.60079"></trkpt>
<trkpt lat="29.999115" lon="120.60079"></trkpt>
<trkpt lat="29.999019" lon="120.600247"></trkpt>
<trkpt lat="29.999019" lon="120.600247"></trkpt>
<trkpt lat="29.99898" lon="120.599835"></trkpt>
<trkpt lat="29.998932" lon="120.599527"></trkpt>
<trkpt lat="29.998932" lon="120.599527"></trkpt>
<trkpt lat="29.998867" lon="120.599119"></trkpt>
<trkpt lat="29.998867" lon="120.599119"></trkpt>
<trkpt lat="29.998854" lon="120.599006"></trkpt>
<trkpt lat="29.998854" lon="120.599006"></trkpt>
<trkpt lat="29.998793" lon="120.598641"></trkpt>
<trkpt lat="29.998793" lon="120.598641"></trkpt>
<trkpt lat="29.998746" lon="120.598351"></trkpt>
<trkpt lat="29.998698" lon="120.597917"></trkpt>
<trkpt lat="29.998685" lon="120.597613"></trkpt>
<trkpt lat="29.998715" lon="120.597075"></trkpt>
<trkpt lat="29.998772" lon="120.596697"></trkpt>
<trkpt lat="29.998772" lon="120.596697"></trkpt>
<trkpt lat="29.998785" lon="120.596619"></trkpt>
<trkpt lat="29.998785" lon="120.596619"></trkpt>
<trkpt lat="29.998828" lon="120.596293"></trkpt>
<trkpt lat="29.998828" lon="120.596293"></trkpt>
<trkpt lat="29.998941" lon="120.59553"></trkpt>
<trkpt lat="29.998941" lon="120.59553"></trkpt>
<trkpt lat="29.999054" lon="120.594848"></trkpt>
<trkpt lat="29.999106" lon="120.594661"></trkpt>
<trkpt lat="29.999106" lon="120.594657"></trkpt>
<trkpt lat="29.998889" lon="120.594596"></trkpt>
<trkpt lat="29.998889" lon="120.594596"></trkpt>
<trkpt lat="29.998173" lon="120.594388"></trkpt>
<trkpt lat="29.998168" lon="120.594384"></trkpt>
<trkpt lat="29.998216" lon="120.593589"></trkpt>
<trkpt lat="29.998216" lon="120.593589"></trkpt>
<trkpt lat="29.99826" lon="120.592969"></trkpt>
<trkpt lat="29.99826" lon="120.592969"></trkpt>
<trkpt lat="29.99826" lon="120.592812"></trkpt>
<trkpt lat="29.99826" lon="120.592812"></trkpt>
<trkpt lat="29.998281" lon="120.592587"></trkpt>
<trkpt lat="29.998281" lon="120.592587"></trkpt>
<trkpt lat="29.99832" lon="120.591836"></trkpt>
<trkpt lat="29.99832" lon="120.591836"></trkpt>
<trkpt lat="29.998398" lon="120.590773"></trkpt>
<trkpt lat="29.998398" lon="120.590773"></trkpt>
<trkpt lat="29.998485" lon="120.589744"></trkpt>
<trkpt lat="29.998485" lon="120.589744"></trkpt>
<trkpt lat="29.99849" lon="120.589475"></trkpt>
<trkpt lat="29.99849" lon="120.589475"></trkpt>
<trkpt lat="29.998494" lon="120.589206"></trkpt>
<trkpt lat="29.998494" lon="120.589206"></trkpt>
<trkpt lat="29.99852" lon="120.588685"></trkpt>
<trkpt lat="29.99852" lon="120.588685"></trkpt>
<trkpt lat="29.998563" lon="120.588051"></trkpt>
<trkpt lat="29.998563" lon="120.588051"></trkpt>
<trkpt lat="29.998611" lon="120.587352"></trkpt>
<trkpt lat="29.998611" lon="120.587352"></trkpt>
<trkpt lat="29.998611" lon="120.587279"></trkpt>
<trkpt lat="29.998611" lon="120.587279"></trkpt>
<trkpt lat="29.998611" lon="120.587222"></trkpt>
<trkpt lat="29.998611" lon="120.587222"></trkpt>
<trkpt lat="29.998611" lon="120.587088"></trkpt>
<trkpt lat="29.998611" lon="120.587088"></trkpt>
<trkpt lat="29.998633" lon="120.586719"></trkpt>
<trkpt lat="29.998633" lon="120.586719"></trkpt>
<trkpt lat="29.998646" lon="120.586458"></trkpt>
<trkpt lat="29.998646" lon="120.586458"></trkpt>
<trkpt lat="29.998668" lon="120.585938"></trkpt>
<trkpt lat="29.998668" lon="120.585868"></trkpt>
<trkpt lat="29.998668" lon="120.585868"></trkpt>
<trkpt lat="29.998685" lon="120.585378"></trkpt>
<trkpt lat="29.998685" lon="120.585378"></trkpt>
<trkpt lat="29.998707" lon="120.584974"></trkpt>
<trkpt lat="29.998707" lon="120.584974"></trkpt>
<trkpt lat="29.99872" lon="120.584748"></trkpt>
<trkpt lat="29.99872" lon="120.584748"></trkpt>
<trkpt lat="29.99875" lon="120.584171"></trkpt>
<trkpt lat="29.99875" lon="120.584171"></trkpt>
<trkpt lat="29.998772" lon="120.583767"></trkpt>
<trkpt lat="29.998772" lon="120.583767"></trkpt>
<trkpt lat="29.998806" lon="120.583607"></trkpt>
<trkpt lat="29.998815" lon="120.583264"></trkpt>
<trkpt lat="29.998815" lon="120.583264"></trkpt>
<trkpt lat="29.998819" lon="120.583034"></trkpt>
<trkpt lat="29.998802" lon="120.582904"></trkpt>
<trkpt lat="29.998802" lon="120.582904"></trkpt>
<trkpt lat="29.998841" lon="120.582522"></trkpt>
<trkpt lat="29.998841" lon="120.582522"></trkpt>
<trkpt lat="29.998872" lon="120.582266"></trkpt>
<trkpt lat="29.998872" lon="120.582266"></trkpt>
<trkpt lat="29.998876" lon="120.58217"></trkpt>
<trkpt lat="29.998876" lon="120.58217"></trkpt>
<trkpt lat="29.998889" lon="120.581884"></trkpt>
<trkpt lat="29.998889" lon="120.581884"></trkpt>
<trkpt lat="29.998928" lon="120.581315"></trkpt>
<trkpt lat="29.998928" lon="120.581315"></trkpt>
<trkpt lat="29.998928" lon="120.581272"></trkpt>
<trkpt lat="29.998928" lon="120.581272"></trkpt>
<trkpt lat="29.998941" lon="120.581081"></trkpt>
<trkpt lat="29.998941" lon="120.581081"></trkpt>
<trkpt lat="29.998945" lon="120.581011"></trkpt>
<trkpt lat="29.998945" lon="120.581007"></trkpt>
<trkpt lat="29.999145" lon="120.581016"></trkpt>
<trkpt lat="29.999145" lon="120.581016"></trkpt>
<trkpt lat="30.000308" lon="120.581059"></trkpt>
<trkpt lat="30.000308" lon="120.581059"></trkpt>
<trkpt lat="30.000365" lon="120.580842"></trkpt>
<trkpt lat="30.00036" lon="120.580608"></trkpt>
<trkpt lat="30.00036" lon="120.580608"></trkpt>
<trkpt lat="30.000273" lon="120.579857"></trkpt>
<trkpt lat="30.000273" lon="120.579857"></trkpt>
<trkpt lat="30.000156" lon="120.578919"></trkpt>
<trkpt lat="30.000156" lon="120.578919"></trkpt>
<trkpt lat="30.000113" lon="120.578477"></trkpt>
<trkpt lat="30.000109" lon="120.578472"></trkpt>
<trkpt lat="30.000069" lon="120.578034"></trkpt>
<trkpt lat="30.000069" lon="120.578034"></trkpt>
<trkpt lat="29.999996" lon="120.577491"></trkpt>
<trkpt lat="29.999991" lon="120.577487"></trkpt>
<trkpt lat="30.000195" lon="120.57747"></trkpt>
<trkpt lat="30.000543" lon="120.577465"></trkpt>
<trkpt lat="30.000543" lon="120.577465"></trkpt>
<trkpt lat="30.001094" lon="120.577452"></trkpt>
<trkpt lat="30.001094" lon="120.577452"></trkpt>
<trkpt lat="30.001628" lon="120.577452"></trkpt>
<trkpt lat="30.001858" lon="120.577487"></trkpt>
<trkpt lat="30.002023" lon="120.577491"></trkpt>
<trkpt lat="30.002023" lon="120.577491"></trkpt>
<trkpt lat="30.002114" lon="120.57747"></trkpt>
<trkpt lat="30.002114" lon="120.57747"></trkpt>
<trkpt lat="30.00283" lon="120.577582"></trkpt>
<trkpt lat="30.00283" lon="120.577582"></trkpt>
<trkpt lat="30.00316" lon="120.5776"></trkpt>
<trkpt lat="30.003546" lon="120.577582"></trkpt>
<trkpt lat="30.003546" lon="120.577582"></trkpt>
<trkpt lat="30.003659" lon="120.577582"></trkpt>
<trkpt lat="30.003659" lon="120.577582"></trkpt>
<trkpt lat="30.004084" lon="120.577565"></trkpt>
<trkpt lat="30.004084" lon="120.577561"></trkpt>
<trkpt lat="30.004102" lon="120.577457"></trkpt>
<trkpt lat="30.004102" lon="120.577457"></trkpt>
<trkpt lat="30.004149" lon="120.576793"></trkpt>
<trkpt lat="30.004149" lon="120.576793"></trkpt>
<trkpt lat="30.004201" lon="120.576194"></trkpt>
<trkpt lat="30.004201" lon="120.576194"></trkpt>
<trkpt lat="30.004223" lon="120.575955"></trkpt>
<trkpt lat="30.00434" lon="120.575569"></trkpt>
<trkpt lat="30.00434" lon="120.575569"></trkpt>
<trkpt lat="30.004401" lon="120.575273"></trkpt>
<trkpt lat="30.004427" lon="120.575017"></trkpt>
<trkpt lat="30.004427" lon="120.575017"></trkpt>
<trkpt lat="30.004436" lon="120.5749"></trkpt>
<trkpt lat="30.004436" lon="120.5749"></trkpt>
<trkpt lat="30.004444" lon="120.574601"></trkpt>
<trkpt lat="30.004444" lon="120.574601"></trkpt>
<trkpt lat="30.004449" lon="120.573746"></trkpt>
<trkpt lat="30.004514" lon="120.573628"></trkpt>
<trkpt lat="30.004514" lon="120.573628"></trkpt>
<trkpt lat="30.00451" lon="120.573364"></trkpt>
<trkpt lat="30.004518" lon="120.57322"></trkpt>
<trkpt lat="30.004518" lon="120.57322"></trkpt>
<trkpt lat="30.004418" lon="120.572873"></trkpt>
<trkpt lat="30.004418" lon="120.572873"></trkpt>
<trkpt lat="30.004392" lon="120.572791"></trkpt>
<trkpt lat="30.004392" lon="120.572791"></trkpt>
<trkpt lat="30.004314" lon="120.572517"></trkpt>
<trkpt lat="30.004288" lon="120.572331"></trkpt>
<trkpt lat="30.004288" lon="120.572331"></trkpt>
<trkpt lat="30.004271" lon="120.571771"></trkpt>
<trkpt lat="30.004271" lon="120.571771"></trkpt>
<trkpt lat="30.004271" lon="120.571545"></trkpt>
<trkpt lat="30.004271" lon="120.571545"></trkpt>
<trkpt lat="30.004271" lon="120.571215"></trkpt>
<trkpt lat="30.004271" lon="120.571215"></trkpt>
<trkpt lat="30.004275" lon="120.570538"></trkpt>
<trkpt lat="30.004275" lon="120.570534"></trkpt>
<trkpt lat="30.004562" lon="120.570538"></trkpt>
<trkpt lat="30.005221" lon="120.570516"></trkpt>
<trkpt lat="30.005221" lon="120.570516"></trkpt>
<trkpt lat="30.00533" lon="120.570499"></trkpt>
<trkpt lat="30.00533" lon="120.570499"></trkpt>
<trkpt lat="30.005638" lon="120.570456"></trkpt>
<trkpt lat="30.005638" lon="120.570456"></trkpt>
<trkpt lat="30.006133" lon="120.57036"></trkpt>
<trkpt lat="30.006133" lon="120.57036"></trkpt>
<trkpt lat="30.006311" lon="120.570326"></trkpt>
<trkpt lat="30.006311" lon="120.570326"></trkpt>
<trkpt lat="30.006584" lon="120.570234"></trkpt>
<trkpt lat="30.006584" lon="120.570234"></trkpt>
<trkpt lat="30.006819" lon="120.570152"></trkpt>
<trkpt lat="30.006819" lon="120.570152"></trkpt>
<trkpt lat="30.006997" lon="120.570091"></trkpt>
<trkpt lat="30.006997" lon="120.570091"></trkpt>
<trkpt lat="30.007287" lon="120.57"></trkpt>
<trkpt lat="30.007287" lon="120.57"></trkpt>
<trkpt lat="30.007656" lon="120.569896"></trkpt>
<trkpt lat="30.007656" lon="120.569896"></trkpt>
<trkpt lat="30.007773" lon="120.569874"></trkpt>
<trkpt lat="30.007773" lon="120.569874"></trkpt>
<trkpt lat="30.008155" lon="120.569792"></trkpt>
<trkpt lat="30.008155" lon="120.569792"></trkpt>
<trkpt lat="30.008264" lon="120.56977"></trkpt>
<trkpt lat="30.008264" lon="120.56977"></trkpt>
<trkpt lat="30.00842" lon="120.569744"></trkpt>
<trkpt lat="30.00842" lon="120.569744"></trkpt>
<trkpt lat="30.008585" lon="120.569714"></trkpt>
<trkpt lat="30.008585" lon="120.569714"></trkpt>
<trkpt lat="30.008746" lon="120.569679"></trkpt>
<trkpt lat="30.008746" lon="120.569679"></trkpt>
<trkpt lat="30.009093" lon="120.569601"></trkpt>
<trkpt lat="30.009093" lon="120.569601"></trkpt>
<trkpt lat="30.00957" lon="120.569492"></trkpt>
<trkpt lat="30.00957" lon="120.569492"></trkpt>
<trkpt lat="30.010065" lon="120.569375"></trkpt>
<trkpt lat="30.010065" lon="120.569375"></trkpt>
<trkpt lat="30.010408" lon="120.569306"></trkpt>
<trkpt lat="30.010408" lon="120.569306"></trkpt>
<trkpt lat="30.010911" lon="120.56918"></trkpt>
<trkpt lat="30.010911" lon="120.569175"></trkpt>
<trkpt lat="30.011111" lon="120.56888"></trkpt>
<trkpt lat="30.011111" lon="120.568876"></trkpt>
<trkpt lat="30.01112" lon="120.568568"></trkpt>
<trkpt lat="30.011107" lon="120.568451"></trkpt>
<trkpt lat="30.011098" lon="120.568446"></trkpt>
<trkpt lat="30.011602" lon="120.568142"></trkpt>
<trkpt lat="30.011602" lon="120.568142"></trkpt>
<trkpt lat="30.011606" lon="120.568138"></trkpt>
<trkpt lat="30.011984" lon="120.567609"></trkpt>
<trkpt lat="30.011984" lon="120.567609"></trkpt>
<trkpt lat="30.012148" lon="120.567374"></trkpt>
<trkpt lat="30.012148" lon="120.567374"></trkpt>
<trkpt lat="30.012678" lon="120.566528"></trkpt>
<trkpt lat="30.012678" lon="120.566528"></trkpt>
<trkpt lat="30.014015" lon="120.564401"></trkpt>
<trkpt lat="30.014015" lon="120.564401"></trkpt>
<trkpt lat="30.01428" lon="120.563967"></trkpt>
<trkpt lat="30.014392" lon="120.563789"></trkpt>
<trkpt lat="30.014392" lon="120.563789"></trkpt>
<trkpt lat="30.014644" lon="120.563394"></trkpt>
<trkpt lat="30.015595" lon="120.561892"></trkpt>
<trkpt lat="30.015595" lon="120.561892"></trkpt>
<trkpt lat="30.015651" lon="120.561806"></trkpt>
<trkpt lat="30.015651" lon="120.561806"></trkpt>
<trkpt lat="30.015699" lon="120.561732"></trkpt>
<trkpt lat="30.015699" lon="120.561732"></trkpt>
<trkpt lat="30.015755" lon="120.561641"></trkpt>
<trkpt lat="30.015755" lon="120.561641"></trkpt>
<trkpt lat="30.016207" lon="120.560929"></trkpt>
<trkpt lat="30.016207" lon="120.560929"></trkpt>
<trkpt lat="30.016584" lon="120.560347"></trkpt>
<trkpt lat="30.016584" lon="120.560347"></trkpt>
<trkpt lat="30.017326" lon="120.559154"></trkpt>
<trkpt lat="30.017326" lon="120.559149"></trkpt>
<trkpt lat="30.017409" lon="120.559206"></trkpt>
<trkpt lat="30.017409" lon="120.559206"></trkpt>
<trkpt lat="30.017539" lon="120.559275"></trkpt>
<trkpt lat="30.017591" lon="120.559271"></trkpt>
<trkpt lat="30.017773" lon="120.559062"></trkpt>
<trkpt lat="30.017773" lon="120.559062"></trkpt>
<trkpt lat="30.018264" lon="120.55839"></trkpt>
<trkpt lat="30.018641" lon="120.557786"></trkpt>
<trkpt lat="30.018641" lon="120.557786"></trkpt>
<trkpt lat="30.01954" lon="120.556241"></trkpt>
<trkpt lat="30.01954" lon="120.556241"></trkpt>
<trkpt lat="30.02003" lon="120.555187"></trkpt>
<trkpt lat="30.02003" lon="120.555187"></trkpt>
<trkpt lat="30.020747" lon="120.553928"></trkpt>
<trkpt lat="30.020747" lon="120.553928"></trkpt>
<trkpt lat="30.020937" lon="120.553585"></trkpt>
<trkpt lat="30.021185" lon="120.55326"></trkpt>
<trkpt lat="30.021228" lon="120.553242"></trkpt>
<trkpt lat="30.02128" lon="120.553247"></trkpt>
<trkpt lat="30.021502" lon="120.553325"></trkpt>
<trkpt lat="30.021502" lon="120.553325"></trkpt>
<trkpt lat="30.021814" lon="120.553464"></trkpt>
<trkpt lat="30.022088" lon="120.553455"></trkpt>
<trkpt lat="30.022235" lon="120.553381"></trkpt>
<trkpt lat="30.022326" lon="120.553312"></trkpt>
<trkpt lat="30.022405" lon="120.55322"></trkpt>
<trkpt lat="30.022461" lon="120.553121"></trkpt>
<trkpt lat="30.022504" lon="120.553003"></trkpt>
<trkpt lat="30.022526" lon="120.552882"></trkpt>
<trkpt lat="30.022539" lon="120.552756"></trkpt>
<trkpt lat="30.0225" lon="120.552539"></trkpt>
<trkpt lat="30.022457" lon="120.552422"></trkpt>
<trkpt lat="30.022387" lon="120.552326"></trkpt>
<trkpt lat="30.022174" lon="120.552096"></trkpt>
<trkpt lat="30.02217" lon="120.552092"></trkpt>
<trkpt lat="30.022617" lon="120.55201"></trkpt>
<trkpt lat="30.02332" lon="120.55191"></trkpt>
<trkpt lat="30.023438" lon="120.551875"></trkpt>
<trkpt lat="30.023646" lon="120.551788"></trkpt>
<trkpt lat="30.023759" lon="120.551723"></trkpt>
<trkpt lat="30.024132" lon="120.551445"></trkpt>
<trkpt lat="30.024132" lon="120.551441"></trkpt>
<trkpt lat="30.024735" lon="120.551975"></trkpt>
<trkpt lat="30.024735" lon="120.551975"></trkpt>
<trkpt lat="30.025009" lon="120.552235"></trkpt>
<trkpt lat="30.025009" lon="120.552235"></trkpt>
<trkpt lat="30.025135" lon="120.552383"></trkpt>
<trkpt lat="30.025135" lon="120.552383"></trkpt>
<trkpt lat="30.025634" lon="120.552352"></trkpt>
<trkpt lat="30.025664" lon="120.552352"></trkpt>
<trkpt lat="30.02605" lon="120.552287"></trkpt>
<trkpt lat="30.02605" lon="120.552287"></trkpt>
<trkpt lat="30.026484" lon="120.552196"></trkpt>
<trkpt lat="30.026484" lon="120.552196"></trkpt>
<trkpt lat="30.02776" lon="120.55181"></trkpt>
<trkpt lat="30.02776" lon="120.55181"></trkpt>
<trkpt lat="30.028429" lon="120.551623"></trkpt>
<trkpt lat="30.028429" lon="120.551619"></trkpt>
<trkpt lat="30.028598" lon="120.551502"></trkpt>
<trkpt lat="30.028702" lon="120.551402"></trkpt>
<trkpt lat="30.028702" lon="120.551402"></trkpt>
<trkpt lat="30.028911" lon="120.551619"></trkpt>
<trkpt lat="30.028911" lon="120.551619"></trkpt>
<trkpt lat="30.029062" lon="120.551576"></trkpt>
<trkpt lat="30.029058" lon="120.551571"></trkpt>
<trkpt lat="30.029219" lon="120.551285"></trkpt>
<trkpt lat="30.029219" lon="120.551285"></trkpt>
<trkpt lat="30.029236" lon="120.551246"></trkpt>
<trkpt lat="30.029236" lon="120.551246"></trkpt>
<trkpt lat="30.029375" lon="120.551302"></trkpt>
<trkpt lat="30.029462" lon="120.551319"></trkpt>
<trkpt lat="30.029549" lon="120.551311"></trkpt>
<trkpt lat="30.03003" lon="120.551168"></trkpt>
<trkpt lat="30.030213" lon="120.551181"></trkpt>
<trkpt lat="30.031597" lon="120.550799"></trkpt>
<trkpt lat="30.031597" lon="120.550799"></trkpt>
<trkpt lat="30.03184" lon="120.550738"></trkpt>
<trkpt lat="30.032422" lon="120.550616"></trkpt>
<trkpt lat="30.032422" lon="120.550616"></trkpt>
<trkpt lat="30.032478" lon="120.550608"></trkpt>
<trkpt lat="30.032478" lon="120.550608"></trkpt>
<trkpt lat="30.033147" lon="120.550516"></trkpt>
<trkpt lat="30.033668" lon="120.550495"></trkpt>
<trkpt lat="30.033906" lon="120.550499"></trkpt>
<trkpt lat="30.033906" lon="120.550499"></trkpt>
<trkpt lat="30.034614" lon="120.550547"></trkpt>
<trkpt lat="30.034614" lon="120.550547"></trkpt>
<trkpt lat="30.035213" lon="120.550621"></trkpt>
<trkpt lat="30.03536" lon="120.550586"></trkpt>
<trkpt lat="30.035456" lon="120.550586"></trkpt>
<trkpt lat="30.036137" lon="120.55069"></trkpt>
<trkpt lat="30.036293" lon="120.550838"></trkpt>
<trkpt lat="30.036293" lon="120.550838"></trkpt>
<trkpt lat="30.036393" lon="120.550846"></trkpt>
<trkpt lat="30.036393" lon="120.550846"></trkpt>
<trkpt lat="30.036476" lon="120.550859"></trkpt>
<trkpt lat="30.036476" lon="120.550859"></trkpt>
<trkpt lat="30.036589" lon="120.550864"></trkpt>
<trkpt lat="30.036589" lon="120.550864"></trkpt>
<trkpt lat="30.036619" lon="120.550864"></trkpt>
<trkpt lat="30.037287" lon="120.55089"></trkpt>
<trkpt lat="30.037543" lon="120.55089"></trkpt>
<trkpt lat="30.037543" lon="120.55089"></trkpt>
<trkpt lat="30.03799" lon="120.55089"></trkpt>
<trkpt lat="30.038572" lon="120.550842"></trkpt>
<trkpt lat="30.039484" lon="120.550738"></trkpt>
<trkpt lat="30.040343" lon="120.550582"></trkpt>
<trkpt lat="30.040343" lon="120.550582"></trkpt>
<trkpt lat="30.040412" lon="120.550556"></trkpt>
<trkpt lat="30.040412" lon="120.550556"></trkpt>
<trkpt lat="30.040621" lon="120.550391"></trkpt>
<trkpt lat="30.041011" lon="120.550239"></trkpt>
<trkpt lat="30.041011" lon="120.550239"></trkpt>
<trkpt lat="30.042274" lon="120.549779"></trkpt>
<trkpt lat="30.042274" lon="120.549779"></trkpt>
<trkpt lat="30.042339" lon="120.549735"></trkpt>
<trkpt lat="30.043385" lon="120.549358"></trkpt>
<trkpt lat="30.043503" lon="120.549275"></trkpt>
<trkpt lat="30.044184" lon="120.549036"></trkpt>
<trkpt lat="30.044709" lon="120.548867"></trkpt>
<trkpt lat="30.045273" lon="120.548707"></trkpt>
<trkpt lat="30.046645" lon="120.548351"></trkpt>
<trkpt lat="30.046645" lon="120.548351"></trkpt>
<trkpt lat="30.046697" lon="120.548333"></trkpt>
<trkpt lat="30.046697" lon="120.548333"></trkpt>
<trkpt lat="30.04753" lon="120.548147"></trkpt>
<trkpt lat="30.047604" lon="120.548129"></trkpt>
<trkpt lat="30.048012" lon="120.548056"></trkpt>
<trkpt lat="30.049102" lon="120.547886"></trkpt>
<trkpt lat="30.050174" lon="120.54776"></trkpt>
<trkpt lat="30.050174" lon="120.54776"></trkpt>
<trkpt lat="30.050755" lon="120.547721"></trkpt>
<trkpt lat="30.051276" lon="120.547726"></trkpt>
<trkpt lat="30.051276" lon="120.547726"></trkpt>
<trkpt lat="30.052235" lon="120.547695"></trkpt>
<trkpt lat="30.05352" lon="120.547691"></trkpt>
<trkpt lat="30.05352" lon="120.547691"></trkpt>
<trkpt lat="30.053615" lon="120.547691"></trkpt>
<trkpt lat="30.053615" lon="120.547691"></trkpt>
<trkpt lat="30.053919" lon="120.547687"></trkpt>
<trkpt lat="30.053919" lon="120.547687"></trkpt>
<trkpt lat="30.056128" lon="120.547604"></trkpt>
<trkpt lat="30.056128" lon="120.547604"></trkpt>
<trkpt lat="30.057452" lon="120.5475"></trkpt>
<trkpt lat="30.057452" lon="120.5475"></trkpt>
<trkpt lat="30.057578" lon="120.547487"></trkpt>
<trkpt lat="30.057578" lon="120.547487"></trkpt>
<trkpt lat="30.057765" lon="120.54747"></trkpt>
<trkpt lat="30.058589" lon="120.547344"></trkpt>
<trkpt lat="30.059714" lon="120.54717"></trkpt>
<trkpt lat="30.05997" lon="120.547127"></trkpt>
<trkpt lat="30.060282" lon="120.547044"></trkpt>
<trkpt lat="30.06036" lon="120.547049"></trkpt>
<trkpt lat="30.06036" lon="120.547049"></trkpt>
<trkpt lat="30.061541" lon="120.546749"></trkpt>
<trkpt lat="30.061541" lon="120.546749"></trkpt>
<trkpt lat="30.061788" lon="120.546684"></trkpt>
<trkpt lat="30.063108" lon="120.546259"></trkpt>
<trkpt lat="30.066359" lon="120.545191"></trkpt>
<trkpt lat="30.067057" lon="120.545026"></trkpt>
<trkpt lat="30.067057" lon="120.545026"></trkpt>
<trkpt lat="30.067153" lon="120.545004"></trkpt>
<trkpt lat="30.067153" lon="120.545004"></trkpt>
<trkpt lat="30.067326" lon="120.544965"></trkpt>
<trkpt lat="30.067326" lon="120.544965"></trkpt>
<trkpt lat="30.0674" lon="120.544948"></trkpt>
<trkpt lat="30.0674" lon="120.544948"></trkpt>
<trkpt lat="30.06842" lon="120.544774"></trkpt>
<trkpt lat="30.06842" lon="120.544774"></trkpt>
<trkpt lat="30.068941" lon="120.544666"></trkpt>
<trkpt lat="30.068941" lon="120.544666"></trkpt>
<trkpt lat="30.069579" lon="120.544579"></trkpt>
<trkpt lat="30.069878" lon="120.544536"></trkpt>
<trkpt lat="30.070556" lon="120.54447"></trkpt>
<trkpt lat="30.072253" lon="120.544418"></trkpt>
<trkpt lat="30.072339" lon="120.544427"></trkpt>
<trkpt lat="30.072526" lon="120.544488"></trkpt>
<trkpt lat="30.072526" lon="120.544488"></trkpt>
<trkpt lat="30.077261" lon="120.544531"></trkpt>
<trkpt lat="30.07839" lon="120.544562"></trkpt>
<trkpt lat="30.07839" lon="120.544562"></trkpt>
<trkpt lat="30.078459" lon="120.544566"></trkpt>
<trkpt lat="30.078459" lon="120.544566"></trkpt>
<trkpt lat="30.078563" lon="120.544579"></trkpt>
<trkpt lat="30.078563" lon="120.544579"></trkpt>
<trkpt lat="30.080564" lon="120.54467"></trkpt>
<trkpt lat="30.080816" lon="120.544687"></trkpt>
<trkpt lat="30.080816" lon="120.544687"></trkpt>
<trkpt lat="30.081016" lon="120.544683"></trkpt>
<trkpt lat="30.081536" lon="120.544722"></trkpt>
<trkpt lat="30.082201" lon="120.544813"></trkpt>
<trkpt lat="30.082786" lon="120.544913"></trkpt>
<trkpt lat="30.08408" lon="120.545273"></trkpt>
<trkpt lat="30.08408" lon="120.545273"></trkpt>
<trkpt lat="30.084184" lon="120.545217"></trkpt>
<trkpt lat="30.084249" lon="120.545161"></trkpt>
<trkpt lat="30.084249" lon="120.545156"></trkpt>
<trkpt lat="30.08444" lon="120.545391"></trkpt>
<trkpt lat="30.08444" lon="120.545391"></trkpt>
<trkpt lat="30.084444" lon="120.545391"></trkpt>
<trkpt lat="30.084549" lon="120.54543"></trkpt>
<trkpt lat="30.084549" lon="120.54543"></trkpt>
<trkpt lat="30.086016" lon="120.545868"></trkpt>
<trkpt lat="30.086775" lon="120.546115"></trkpt>
<trkpt lat="30.086775" lon="120.546115"></trkpt>
<trkpt lat="30.086823" lon="120.546133"></trkpt>
<trkpt lat="30.086823" lon="120.546133"></trkpt>
<trkpt lat="30.087713" lon="120.546428"></trkpt>
<trkpt lat="30.087713" lon="120.546428"></trkpt>
<trkpt lat="30.087773" lon="120.546428"></trkpt>
<trkpt lat="30.088407" lon="120.546619"></trkpt>
<trkpt lat="30.088407" lon="120.546619"></trkpt>
<trkpt lat="30.088468" lon="120.546636"></trkpt>
<trkpt lat="30.088516" lon="120.546693"></trkpt>
<trkpt lat="30.088516" lon="120.546693"></trkpt>
<trkpt lat="30.089015" lon="120.545638"></trkpt>
<trkpt lat="30.089015" lon="120.545638"></trkpt>
<trkpt lat="30.089479" lon="120.54474"></trkpt>
<trkpt lat="30.089666" lon="120.544423"></trkpt>
<trkpt lat="30.08987" lon="120.544123"></trkpt>
<trkpt lat="30.090156" lon="120.543772"></trkpt>
<trkpt lat="30.090156" lon="120.543772"></trkpt>
<trkpt lat="30.09046" lon="120.543459"></trkpt>
<trkpt lat="30.090734" lon="120.543225"></trkpt>
<trkpt lat="30.090903" lon="120.543099"></trkpt>
<trkpt lat="30.090903" lon="120.543099"></trkpt>
<trkpt lat="30.090981" lon="120.543038"></trkpt>
<trkpt lat="30.091354" lon="120.542817"></trkpt>
<trkpt lat="30.091354" lon="120.542817"></trkpt>
<trkpt lat="30.091497" lon="120.542726"></trkpt>
<trkpt lat="30.091549" lon="120.542704"></trkpt>
<trkpt lat="30.091736" lon="120.542617"></trkpt>
<trkpt lat="30.092912" lon="120.542166"></trkpt>
<trkpt lat="30.092912" lon="120.542166"></trkpt>
<trkpt lat="30.092969" lon="120.542148"></trkpt>
<trkpt lat="30.092969" lon="120.542148"></trkpt>
<trkpt lat="30.093073" lon="120.542118"></trkpt>
<trkpt lat="30.093073" lon="120.542118"></trkpt>
<trkpt lat="30.093403" lon="120.541992"></trkpt>
<trkpt lat="30.094418" lon="120.541619"></trkpt>
<trkpt lat="30.094418" lon="120.541619"></trkpt>
<trkpt lat="30.095317" lon="120.541298"></trkpt>
<trkpt lat="30.095629" lon="120.541207"></trkpt>
<trkpt lat="30.095629" lon="120.541207"></trkpt>
<trkpt lat="30.095755" lon="120.541194"></trkpt>
<trkpt lat="30.095755" lon="120.541194"></trkpt>
<trkpt lat="30.095833" lon="120.541202"></trkpt>
<trkpt lat="30.096411" lon="120.541189"></trkpt>
<trkpt lat="30.096411" lon="120.541189"></trkpt>
<trkpt lat="30.098594" lon="120.541233"></trkpt>
<trkpt lat="30.098594" lon="120.541233"></trkpt>
<trkpt lat="30.098676" lon="120.541233"></trkpt>
<trkpt lat="30.098893" lon="120.54128"></trkpt>
<trkpt lat="30.098919" lon="120.541272"></trkpt>
<trkpt lat="30.098941" lon="120.541202"></trkpt>
<trkpt lat="30.098941" lon="120.541198"></trkpt>
<trkpt lat="30.098971" lon="120.541059"></trkpt>
<trkpt lat="30.098971" lon="120.541059"></trkpt>
<trkpt lat="30.099201" lon="120.539931"></trkpt>
<trkpt lat="30.099201" lon="120.539931"></trkpt>
<trkpt lat="30.099214" lon="120.539831"></trkpt>
<trkpt lat="30.099206" lon="120.539748"></trkpt>
<trkpt lat="30.099171" lon="120.539692"></trkpt>
<trkpt lat="30.099102" lon="120.539683"></trkpt>
<trkpt lat="30.099076" lon="120.539692"></trkpt>
<trkpt lat="30.099076" lon="120.539692"></trkpt>
<trkpt lat="30.098841" lon="120.539562"></trkpt>
<trkpt lat="30.098841" lon="120.539562"></trkpt>
<trkpt lat="30.098811" lon="120.539544"></trkpt>
<trkpt lat="30.098702" lon="120.539453"></trkpt>
<trkpt lat="30.098698" lon="120.539444"></trkpt>
</trkseg></trk>
</gpx>